HIERARCHY
ROOT Hips
{
  OFFSET 0.000000 0.000000 0.000000
  CHANNELS 6 Xposition Yposition Zposition Zrotation Xrotation Yrotation
  JOINT Spine
  {
    OFFSET 0.000000 0.000000 0.000000
    CHANNELS 3 Zrotation Xrotation Yrotation
    JOINT Spine1
    {
      OFFSET 0.114178 0.375346 0.199977
      CHANNELS 3 Zrotation Xrotation Yrotation
      JOINT Spine2
      {
        OFFSET -0.305711 0.040779 0.096593
        CHANNELS 3 Zrotation Xrotation Yrotation
        JOINT Neck
        {
          OFFSET 0.000000 0.000000 0.000000
          CHANNELS 3 Zrotation Xrotation Yrotation
          JOINT Head
          {
            OFFSET 0.259589 0.001812 0.160172
            CHANNELS 3 Zrotation Xrotation Yrotation
          }
        }
      }
      JOINT LeftShoulder
      {
        OFFSET 0.000000 0.000000 0.000000
        CHANNELS 3 Zrotation Xrotation Yrotation
        JOINT LeftUpperArm
        {
          OFFSET 0.000000 0.000000 0.000000
          CHANNELS 3 Zrotation Xrotation Yrotation
          JOINT LeftForearm
          {
            OFFSET 0.019710 -0.140503 0.003838
            CHANNELS 3 Zrotation Xrotation Yrotation
            JOINT LeftHand
            {
              OFFSET -0.056381 0.050539 0.117333
              CHANNELS 3 Zrotation Xrotation Yrotation
            }
          }
        }
      }
      JOINT RightShoulder
      {
        OFFSET -0.305711 0.040779 0.096593
        CHANNELS 3 Zrotation Xrotation Yrotation
        JOINT RightUpperArm
        {
          OFFSET 0.000000 0.000000 0.000000
          CHANNELS 3 Zrotation Xrotation Yrotation
          JOINT RightForearm
          {
            OFFSET -0.191375 -0.116263 -0.052067
            CHANNELS 3 Zrotation Xrotation Yrotation
            JOINT RightHand
            {
              OFFSET -0.019522 -0.194788 -0.003059
              CHANNELS 3 Zrotation Xrotation Yrotation
            }
          }
        }
      }
    }
  }
  JOINT LeftUpLeg
  {
    OFFSET 0.000000 0.000000 0.000000
    CHANNELS 3 Zrotation Xrotation Yrotation
    JOINT LeftLeg
    {
      OFFSET 0.001946 -0.084483 0.062368
      CHANNELS 3 Zrotation Xrotation Yrotation
      JOINT LeftFoot
      {
        OFFSET -0.041789 -0.313847 -0.180433
        CHANNELS 3 Zrotation Xrotation Yrotation
        JOINT LeftToeBase
        {
          OFFSET 0.145984 0.174949 0.236567
          CHANNELS 3 Zrotation Xrotation Yrotation
        }
      }
    }
  }
  JOINT RightUpLeg
  {
    OFFSET -0.239090 0.061627 0.086720
    CHANNELS 3 Zrotation Xrotation Yrotation
    JOINT RightLeg
    {
      OFFSET 0.205870 0.114481 0.136447
      CHANNELS 3 Zrotation Xrotation Yrotation
      JOINT RightFoot
      {
        OFFSET -0.038875 -0.271638 -0.055199
        CHANNELS 3 Zrotation Xrotation Yrotation
        JOINT RightToeBase
        {
          OFFSET 0.044236 0.202526 0.296196
          CHANNELS 3 Zrotation Xrotation Yrotation
        }
      }
    }
  }
}
MOTION
Frames: 113
Frame Time: 0.081683
0.121178 0.979165 -0.045676 70.453037 -14.185012 19.986857 -86.425362 -15.317420 11.654955 93.713429 12.682196 15.970350 -149.545946 4.838623 44.250456 0.000000 0.000000 0.000000 59.973426 16.230237 -49.178428 -164.601000 -20.831861 14.148509 23.197881 0.186707 -0.435655 160.050654 -40.538221 -129.234216 -19.070260 16.110825 1.354020 -42.882539 -15.446596 -27.271665 -23.174684 1.083190 2.528565 47.068075 10.633778 6.134033 47.037492 12.441185 7.210249 -69.550022 -13.492256 -56.635587 -5.334665 5.663833 65.998745 -3.936363 40.561759 -126.164166 -95.065826 58.780846 175.566479 -5.401839 57.503761 -69.323836 -96.928073 46.488457 47.458855 8.628102 11.450527 -108.608017 -18.215259 35.844924 -124.908230
0.122480 0.981116 -0.046665 70.943603 -14.462709 20.193884 -85.831040 -14.723527 18.131301 91.857096 19.179638 15.441647 -147.982676 3.807837 44.555601 0.000000 0.000000 0.000000 60.339341 17.515167 -47.947578 -172.247411 -23.118719 20.732238 23.189990 0.649844 -1.516545 165.872260 -32.006453 -106.958976 -18.997002 10.511206 3.767120 -39.617928 -18.553396 -29.860326 -23.158081 1.409718 3.291816 43.280629 14.214452 7.040312 39.188832 16.590523 7.488659 -64.470064 -5.950273 -86.071249 -10.118896 11.479048 94.295349 -7.864226 42.043027 -132.183937 -91.276079 59.898157 179.458078 5.373641 61.648104 -60.936713 -107.521399 47.202440 43.690118 8.208048 12.667691 -114.086777 -17.508973 35.886534 -123.496791
0.121358 0.981114 -0.045188 70.973521 -14.151343 19.752684 -86.584754 -14.411763 17.792566 92.161186 18.849201 14.913213 -149.222491 4.076833 42.822432 0.000000 0.000000 0.000000 63.638957 18.624408 -45.482235 -172.568573 -26.591846 24.571706 23.169730 1.190071 -2.778319 164.709672 -34.815701 -102.219558 -16.946043 7.278147 5.263350 -39.737023 -18.446836 -28.896954 -23.158903 1.395363 3.258247 46.291182 15.767385 7.587101 40.428206 16.019093 7.404780 -66.943557 -9.784282 -76.061639 -8.082341 10.998178 86.545482 -5.806158 41.250832 -133.878577 -87.343596 60.027066 -177.229871 5.422203 61.228454 -60.810872 -112.785580 49.883790 38.733059 13.117601 14.202142 -112.232257 -19.603323 37.584423 -124.943911
0.123737 0.975724 -0.049457 68.189546 -14.297449 20.993610 -82.393325 -14.471560 19.550986 90.236895 22.881305 13.014139 -148.058727 5.622762 43.286365 0.000000 0.000000 0.000000 59.851435 16.795043 -43.667145 -176.250831 -21.164817 22.044975 23.185265 0.808833 -1.887744 173.516863 -27.718656 -100.447686 -25.333351 7.973106 -7.551386 -43.521025 -21.818396 -27.508190 -23.151368 1.521905 3.554226 48.064194 18.175403 8.052783 33.669744 8.898276 3.012804 -64.416828 -4.824435 -116.065240 -3.637030 16.828882 124.168476 -6.711613 44.466237 -137.924012 -87.785933 61.397421 -177.192907 8.222419 65.618264 -63.310560 -120.517203 54.776036 38.152565 15.645695 9.895636 -118.745588 -11.184708 30.536413 -119.908593
0.127177 0.980462 -0.047489 70.915514 -14.150956 19.772900 -85.147474 -13.925771 21.632056 92.347328 23.678052 13.937080 -149.663342 6.331146 44.399711 0.000000 0.000000 0.000000 62.874195 19.549441 -45.817652 -178.627150 -25.848060 27.652183 23.153887 1.480818 -3.458110 164.229889 -41.717152 -102.235253 -16.323534 5.779829 4.118358 -35.038950 -21.563956 -30.741701 -23.129042 1.846415 4.313868 46.831538 14.070373 10.831265 41.834310 14.150242 8.917513 -61.783918 -1.459316 -89.036436 -13.684437 14.767595 100.677048 -11.636030 42.521030 -137.812915 -95.431636 60.192754 175.980125 5.691150 61.502377 -60.809986 -110.060097 49.082506 43.883192 10.114476 13.173562 -116.758155 -17.000118 35.065915 -123.113633
0.124981 0.980182 -0.037478 73.747526 -11.985198 15.933060 -88.505684 -12.140343 14.708089 95.671213 10.155172 19.264019 -152.552694 0.333996 44.077961 0.000000 0.000000 0.000000 56.733519 12.194715 -51.313070 -161.330554 -11.464620 3.580521 23.163896 -1.304728 3.046326 1.787743 -67.663082 -3.536114 -3.384122 -15.135554 8.899025 -47.682495 -3.544394 -26.257377 -23.198532 0.053551 0.124953 35.123210 10.882582 -0.919470 46.851323 23.317355 8.223203 -80.714730 -16.518629 -51.738095 4.178236 1.268087 58.027657 4.073169 36.114069 -109.667177 -90.203075 57.655323 178.779691 -22.727050 46.943903 -78.508334 -76.206607 45.262605 53.484800 9.694131 8.530879 -98.895504 -16.982267 34.700939 -125.529930
0.117882 0.979298 -0.047382 70.164726 -15.053237 21.307731 -84.870354 -15.954851 14.066518 93.441782 10.579145 22.815405 -151.401278 -3.851999 47.696359 0.000000 0.000000 0.000000 58.616441 15.519388 -49.922238 -154.034141 4.431609 -12.311821 22.916419 -3.708627 8.698949 -141.859600 -63.159811 124.053225 19.271613 0.468030 23.953198 -40.504844 -5.019584 -33.771826 -23.195172 0.409699 0.956026 34.866061 8.428189 1.382097 41.936930 19.014782 7.939328 -75.586487 -17.961278 -37.097818 2.347019 1.287089 45.997157 -2.018903 34.658985 -117.909875 -90.264736 57.195734 178.548329 -7.746807 47.600550 -62.286098 -85.745549 33.823490 46.613693 4.073265 6.964602 -103.999395 -15.412739 31.267453 -125.224757
0.118686 0.978471 -0.044181 70.305819 -13.933880 19.689072 -85.670737 -14.343540 16.558078 94.343356 14.710378 19.237582 -151.062967 1.467160 46.714768 0.000000 0.000000 0.000000 60.294148 17.858685 -44.658789 -160.839058 -10.267073 2.428704 23.149648 -1.549353 3.618444 168.607273 -38.392325 -163.060253 -12.535611 20.004501 5.437795 -38.029323 -9.357078 -31.000575 -23.184746 0.824416 1.924133 38.030592 11.706188 3.653272 41.909903 11.848506 5.131207 -70.206754 -13.862852 -53.210535 -4.508078 4.759254 60.668611 0.231157 35.927283 -118.763807 -88.251576 57.773877 179.999840 -13.164997 46.192056 -67.831400 -83.532754 38.435850 45.443157 8.542984 7.724864 -102.051534 -14.472357 29.763609 -124.468704
0.124897 0.983341 -0.040764 74.153661 -13.182747 17.388051 -87.505463 -13.418433 15.319170 92.360037 12.122214 18.643679 -149.618125 2.252571 47.880477 0.000000 0.000000 0.000000 56.433163 14.844066 -51.001809 -162.031038 -6.580784 -0.040530 23.121438 -1.944545 4.543777 155.389075 -83.505191 -154.140135 -3.522720 -10.271875 11.714850 -37.115800 -4.524134 -29.154090 -23.193510 0.499483 1.165571 43.643394 17.879306 3.296810 45.832553 16.683158 6.752392 -77.507774 -15.357191 -50.153291 0.853788 1.870294 58.548208 0.762164 33.871337 -112.972561 -88.406918 57.306763 -179.803867 -20.984680 50.474995 -78.696134 -78.357976 43.954901 61.733797 4.707185 7.402266 -107.259127 -13.932953 30.036374 -123.688379
0.130865 0.979164 -0.041360 72.453520 -12.210180 16.612749 -86.283679 -12.106002 17.491422 92.575336 17.903661 13.452204 -145.759951 8.063006 46.586532 0.000000 0.000000 0.000000 51.808692 12.287323 -52.169023 -162.059667 -12.891690 6.757297 23.192776 -0.534345 1.246939 161.607643 -53.677214 -149.363882 -14.388034 8.957041 2.705484 -37.686888 -17.346966 -26.957343 -23.156047 1.444641 3.373492 47.165563 18.771594 8.604579 44.626938 12.041156 5.834302 -67.496872 -6.397354 -83.167155 -7.150311 8.242787 93.725244 -6.763541 42.021147 -126.898875 -97.108589 59.398928 174.188042 -8.259044 59.511516 -74.500108 -96.095974 52.970420 51.244755 9.561679 11.161065 -109.575694 -16.346607 34.983125 -123.171488
0.124799 0.981111 -0.042103 72.063079 -12.982592 17.781001 -86.816200 -12.248023 23.590388 93.091058 24.753754 13.079918 -145.363967 7.726994 46.205504 0.000000 0.000000 0.000000 56.363777 17.341866 -49.407767 -171.993915 -27.389487 24.856696 23.153247 1.491369 -3.482792 156.102122 -51.032740 -115.139882 -10.705716 7.315674 12.800511 -31.634927 -26.186785 -32.428201 -23.086705 2.340609 5.472779 43.932850 13.711000 12.818290 45.639597 14.734602 11.486558 -60.811449 -1.815326 -71.991584 -16.044137 11.617080 85.632561 -10.033350 39.065020 -134.403769 -89.441584 59.632507 -179.391634 2.652182 58.428397 -61.525929 -102.576857 47.316881 48.182720 7.745898 11.871909 -114.572023 -16.438906 33.578548 -123.081747
0.129933 0.975025 -0.043494 69.810239 -12.156818 17.354815 -85.953631 -12.357550 15.906451 90.339936 21.589589 6.218807 -140.093309 17.401177 47.482903 0.000000 0.000000 0.000000 50.486924 12.864025 -53.335777 -170.010218 -15.038758 14.429246 23.186138 0.781899 -1.824852 171.942703 -28.135605 -100.335192 -20.504627 6.263157 -1.279999 -39.292923 -22.591260 -19.654348 -23.132554 1.799284 4.203479 56.541246 22.128822 12.931382 37.892904 12.282303 5.506479 -64.442908 0.366172 -116.352359 -5.547693 17.830529 129.977616 -9.315599 43.748743 -138.590942 -91.578918 61.136812 179.345601 15.037781 65.738226 -57.877003 -123.402191 56.572630 34.245325 15.244380 10.092608 -115.025326 -11.946486 30.562587 -120.269818
0.130005 0.981262 -0.042792 72.131997 -12.717018 17.398247 -86.582104 -11.175904 29.775057 91.160553 32.311507 9.632245 -141.895600 10.818522 47.602643 0.000000 0.000000 0.000000 51.768866 14.071408 -53.847131 -178.012252 -27.220477 29.960800 23.108570 2.100095 -4.908419 167.613483 -42.656709 -101.204350 -10.974142 1.966995 12.070298 -34.634114 -27.395690 -28.886298 -23.089928 2.306751 5.393290 42.243213 19.021927 11.378245 40.825609 14.781974 8.088727 -58.472010 11.469012 -103.090253 -20.593050 20.859640 119.977597 -18.295060 38.539543 -145.050293 -84.398927 60.938280 -173.971600 4.411943 64.650402 -65.372482 -108.288391 54.042994 52.306079 7.417899 13.260376 -121.711856 -15.559974 32.642080 -121.441114
0.121750 0.977194 -0.043540 69.884100 -13.254984 18.883154 -86.202448 -13.721919 15.534993 92.566670 17.229042 13.501213 -144.370613 8.142031 46.698003 0.000000 0.000000 0.000000 52.632982 11.739149 -55.306509 -165.450182 -15.574954 10.873875 23.197966 -0.175156 0.408703 165.201991 -32.536127 -125.138758 -16.307930 12.447826 6.367386 -38.105396 -15.163515 -26.012525 -23.168635 1.212416 2.830544 42.318333 17.534100 5.765801 43.443237 9.925501 3.749509 -67.645791 -11.551372 -56.966614 -5.485156 4.829079 70.433530 -10.509708 43.782604 -131.495825 -108.196984 57.893600 164.853332 6.889723 56.073913 -56.392682 -106.364974 44.588622 38.753512 12.011610 18.832056 -108.103978 -30.452543 45.655650 -132.365524
0.123513 0.979727 -0.040446 72.046128 -12.549664 17.197560 -87.089841 -11.713439 23.668367 91.311148 27.341061 8.488868 -139.998789 13.809809 49.040059 0.000000 0.000000 0.000000 48.689964 12.056665 -55.126818 -170.701655 -20.799696 19.456028 23.170247 1.179376 -2.753326 164.499552 -40.210220 -109.712921 -17.243205 11.630883 6.093443 -38.459974 -22.129547 -23.336903 -23.133769 1.782673 4.164579 43.316913 23.414961 8.481270 34.989911 14.567088 4.931835 -67.526939 -7.356147 -81.556318 -7.097628 9.421006 92.019418 -5.284497 36.906268 -131.626260 -69.993123 58.789691 -162.446172 10.459249 58.179416 -54.001502 -108.781259 46.519474 43.018327 8.993195 6.814326 -115.119471 -9.340650 25.919954 -119.997256
0.121504 0.977346 -0.037953 71.431334 -11.803197 16.362595 -88.351533 -11.390579 19.193930 93.757592 18.922877 13.472668 -144.303537 8.696267 47.169575 0.000000 0.000000 0.000000 53.065707 13.893283 -51.436248 -165.077537 -17.281495 12.221066 23.198522 0.058075 -0.135508 164.944932 -48.704731 -142.970337 -10.659693 5.873172 10.344072 -39.561309 -14.012311 -24.981887 -23.174597 1.085158 2.533162 36.367967 16.892819 3.598325 42.182852 10.934662 3.426264 -70.135496 -10.823826 -58.881437 -3.991032 4.184959 68.431395 -2.289303 35.168758 -121.634032 -77.581984 58.246248 -170.227264 -12.358447 50.169680 -71.420578 -85.245975 45.336310 48.347433 9.888448 9.600213 -101.848860 -16.305651 32.312977 -124.499778
0.116438 0.974688 -0.048660 67.392001 -14.762361 21.987976 -84.834502 -16.173944 12.462478 93.322129 13.254905 17.773755 -144.221335 3.711783 49.032424 0.000000 0.000000 0.000000 52.249399 11.621456 -57.202047 -161.647429 -2.732982 -3.156843 23.085260 -2.355632 5.508054 171.573302 -34.866514 -160.189472 -7.165346 26.780688 13.009605 -38.494013 -10.620007 -29.449498 -23.184493 0.831907 1.941624 36.014833 14.291951 2.731959 39.018808 13.909134 4.495071 -67.657073 -14.937464 -46.710252 -4.145323 3.571557 53.755013 -3.248877 40.423778 -122.176807 -101.212729 57.581661 169.863848 -3.713449 47.114522 -59.537735 -91.389373 35.104653 38.121613 10.583523 14.610461 -102.446602 -26.910011 42.133236 -131.250238
0.126044 0.977557 -0.038754 71.310153 -11.578144 16.087986 -88.220118 -10.849733 21.080413 91.992154 24.135750 8.155656 -141.283504 14.135136 46.371279 0.000000 0.000000 0.000000 50.110006 12.388852 -49.930431 -167.556844 -16.112951 13.861508 23.191550 0.587949 -1.372060 175.632282 -18.359753 -99.650907 -20.077139 6.430183 0.737500 -39.107799 -18.667418 -20.860842 -23.154170 1.476120 3.447121 41.276324 23.784419 6.022453 36.000260 11.083459 2.774077 -69.035820 -8.519458 -91.478271 -2.867413 9.138231 107.433425 -10.444843 41.808771 -138.755868 -86.778684 60.790694 -176.364977 -2.754256 62.715994 -72.879939 -108.443460 59.001360 42.849858 15.046316 11.736801 -110.764471 -15.090981 32.672707 -122.210528
0.123717 0.979025 -0.037893 72.060677 -11.773676 16.136726 -87.678760 -10.465388 25.835342 92.467912 27.327201 10.384192 -141.527951 11.433632 48.190708 0.000000 0.000000 0.000000 51.549940 14.343324 -53.982735 -171.574909 -29.183704 27.578010 23.114312 2.032162 -4.749137 157.956294 -50.421029 -111.113969 -12.640492 1.335078 7.396608 -40.820259 -22.185330 -24.635845 -23.139432 1.703153 3.978390 38.172335 19.175118 6.423350 41.420665 14.953283 5.832170 -63.348856 -2.909204 -75.162360 -12.373938 11.010031 89.765597 -7.812741 35.656078 -134.284180 -72.274139 58.945184 -164.580830 -8.364627 55.947815 -71.999646 -93.287667 51.004204 53.114301 9.924698 9.387043 -111.304253 -13.109611 29.108991 -121.942020
0.123013 0.976332 -0.042168 70.020975 -12.699451 18.053358 -85.318532 -12.812968 17.186705 90.656249 17.973193 13.460708 -144.069547 6.994415 46.286948 0.000000 0.000000 0.000000 50.383665 9.660120 -52.210691 -167.258370 -23.231776 18.846945 23.187514 0.737429 -1.721021 156.747216 -47.871734 -118.299718 -30.777064 10.457402 -17.716452 -39.459737 -11.728560 -25.313331 -23.182738 0.882157 2.058973 36.316647 17.479790 2.462866 34.991678 12.910120 3.101132 -60.449362 -2.675953 -74.899171 -15.287178 13.986919 82.226022 -3.622819 43.308924 -128.753940 -94.401477 59.800094 176.332638 -5.266297 56.200391 -69.640683 -101.488947 51.259336 40.448363 15.273812 10.940014 -106.976890 -16.171958 34.989446 -123.470674
0.123844 0.977725 -0.036072 71.974578 -11.061656 15.190057 -88.129680 -9.812454 24.121905 92.669672 25.085276 10.250918 -143.931612 12.215946 46.822503 0.000000 0.000000 0.000000 52.692146 13.898922 -50.304965 -173.811316 -25.479564 25.662361 23.136097 1.750430 -4.089077 164.285101 -45.380584 -109.991440 -15.788400 3.164574 2.672094 -39.907437 -16.081683 -22.415092 -23.166750 1.249945 2.918264 37.753611 17.254606 4.595993 40.955369 16.354655 5.927549 -67.426672 -6.616209 -74.144429 -7.543080 9.780951 88.610385 -4.661041 37.379486 -130.546464 -77.861638 59.055016 -169.582491 -13.484742 54.580579 -77.183593 -88.950725 53.554158 54.520205 12.128053 9.565595 -107.893288 -14.399869 31.892292 -122.753581
0.125104 0.978457 -0.039791 72.154057 -12.238845 16.741808 -86.757087 -12.466405 14.923863 92.595033 12.548637 16.991257 -145.907243 4.044518 47.891192 0.000000 0.000000 0.000000 50.940711 9.909865 -56.270110 -155.181450 12.418435 -16.662296 22.876929 -3.957559 9.289666 -45.354170 -59.649435 34.617762 10.876583 -28.629026 11.905606 -43.063976 -7.680810 -26.593886 -23.193821 0.483925 1.129257 43.224978 13.804302 2.137723 50.516168 15.238862 6.122053 -70.703179 -11.245404 -53.188890 -2.422076 1.470652 64.487576 -5.948327 35.492922 -120.685898 -89.118343 58.167271 179.936052 -20.078148 52.755862 -82.323957 -76.260464 45.124868 62.812811 3.555996 10.338272 -104.567524 -18.220649 34.610817 -125.299069
0.116354 0.976266 -0.042715 69.773959 -13.550444 19.338891 -86.818668 -14.385629 13.600440 94.121815 8.727431 22.439414 -148.889758 -2.750271 47.982872 0.000000 0.000000 0.000000 53.971088 10.303419 -56.420475 -150.724003 14.274128 -20.431542 22.732833 -4.753056 11.186918 -51.621033 -53.694870 38.219920 25.289532 -27.836347 6.921896 -43.607066 -4.850710 -31.986949 -23.197638 0.216277 0.504654 28.980767 7.831331 -0.312668 43.863031 22.703045 7.391105 -80.819251 -18.660190 -31.930475 6.984831 1.080731 43.941542 0.173478 33.070933 -116.036151 -89.129444 57.262281 179.161246 -11.912844 46.131434 -66.990887 -81.964482 37.379998 48.518061 7.040738 9.514480 -101.096673 -20.285860 36.523209 -127.684642
0.121277 0.974825 -0.041718 70.875728 -13.036817 18.242688 -86.403730 -13.252908 16.615248 94.676503 13.384271 19.585090 -151.427096 1.973627 47.629867 0.000000 0.000000 0.000000 54.054327 9.952673 -54.169620 -154.474235 18.901721 -22.364455 22.694515 -4.942180 11.640349 -18.411814 -42.697197 13.898824 -4.321645 -40.835450 7.395770 -42.819946 -2.629436 -27.904635 -23.198237 0.131702 0.307306 30.122729 12.069367 -0.920346 42.173796 32.787287 11.276960 -82.530751 -18.021996 -29.473399 9.834279 -0.431832 35.584041 3.731646 31.218828 -101.248301 -100.499801 54.878395 169.332709 -28.882587 35.931406 -77.301386 -60.272282 32.345138 54.339775 5.366396 9.507506 -92.019284 -24.066425 38.887446 -130.976118
0.122264 0.978764 -0.036156 72.182259 -11.356985 15.534719 -87.931470 -10.740889 20.070922 91.878425 20.716272 11.161554 -141.321275 11.229012 48.559986 0.000000 0.000000 0.000000 49.163734 11.451396 -53.857786 -168.954005 -19.235793 16.589678 23.190069 0.646833 -1.509516 157.267202 -57.573135 -127.103124 -12.528079 10.992032 7.275730 -36.883211 -16.398105 -24.292096 -23.161186 1.354664 3.163079 40.327186 21.370370 5.813484 44.390392 14.644007 5.382450 -63.934988 -4.674986 -62.916582 -12.299372 8.898089 77.642882 -5.767508 36.257584 -128.742429 -82.542425 58.829966 -173.891187 -11.780958 54.856220 -75.056041 -88.006731 50.644595 56.517182 8.936792 8.916448 -108.554375 -13.761024 29.880678 -122.643001
0.117320 0.974530 -0.044537 68.153787 -13.573283 19.955255 -84.245975 -14.060177 16.409447 94.065444 17.474871 15.831030 -144.232294 5.227100 47.707785 0.000000 0.000000 0.000000 52.070776 12.987867 -55.009533 -171.550970 -13.872268 11.364347 23.193513 -0.499309 1.165164 167.092214 -47.022441 -138.065606 -10.339114 20.223542 11.795716 -39.590621 -12.842521 -27.491377 -23.177975 1.005915 2.348034 36.957169 17.200661 3.510097 40.954635 12.685413 4.003022 -66.702194 -12.560981 -51.239771 -6.044400 5.006883 61.315691 -4.855447 43.370449 -124.271828 -110.655438 56.476396 162.250084 2.979512 51.772443 -57.291113 -99.958196 40.549104 38.918215 11.765910 15.009281 -106.128797 -25.400928 41.759236 -129.727908
0.127687 0.976581 -0.031361 72.590740 -9.267534 12.594975 -89.736387 -7.605108 23.707902 90.885797 25.252036 6.006507 -138.047997 18.423619 50.397953 0.000000 0.000000 0.000000 48.369332 10.644745 -58.526719 -170.592026 -18.760876 18.746135 23.164781 1.287986 -3.007188 168.206591 -39.265182 -107.288886 -11.442393 5.802029 13.412815 -34.919409 -18.210152 -19.582045 -23.150525 1.535412 3.585826 29.347328 19.547799 3.500276 46.568798 14.488303 5.346515 -70.992803 -7.232458 -91.698950 -1.679294 4.503843 113.546532 -11.829682 36.737040 -135.142162 -83.727289 60.051761 -174.051664 -17.827715 58.344460 -86.887061 -79.859681 57.430481 72.414377 7.414814 13.876637 -112.075864 -20.569384 39.202621 -125.092360
0.123997 0.975481 -0.046828 69.462213 -13.909424 19.959282 -84.232130 -15.086281 10.601702 91.695438 8.734809 19.664930 -149.913587 1.344823 47.793138 0.000000 0.000000 0.000000 56.906754 13.162536 -52.714079 -158.195507 -0.212204 -6.830700 23.028598 -2.882836 6.747887 -173.367837 -56.987999 166.823923 7.023971 -4.468299 26.103333 -37.564205 -5.273046 -30.509705 -23.193513 0.499346 1.165250 34.266334 10.566824 1.586284 42.162635 16.906958 6.592604 -73.453696 -16.969445 -57.004746 2.820789 0.655351 64.016948 -2.396801 44.806759 -113.710796 -121.953336 52.771588 152.881599 -12.674780 54.302238 -75.765648 -85.715087 43.812647 48.375115 7.927296 15.799039 -99.248499 -30.224275 45.252683 -133.266425
0.119744 0.979090 -0.038659 71.274856 -12.214842 16.977490 -87.998892 -12.197742 17.096513 91.923955 19.200205 10.660413 -140.791896 11.530523 47.508015 0.000000 0.000000 0.000000 51.077602 12.775077 -54.953483 -172.104715 -32.989947 32.394824 23.061507 2.589934 -6.058583 149.716062 -56.628130 -101.973056 -6.049238 -3.394468 17.385252 -37.245534 -17.369289 -23.605484 -23.158139 1.408714 3.289469 35.722276 18.134505 4.843044 48.231714 17.903082 7.795607 -62.212662 -3.341257 -72.170155 -14.288107 13.526354 85.128478 -3.479558 37.084208 -130.110533 -81.431813 59.091088 -173.005626 -13.029616 55.941610 -77.623918 -91.329489 53.328407 56.464132 11.590154 12.481341 -111.865007 -17.683017 34.654707 -124.212102
0.119669 0.977050 -0.042724 70.083907 -13.244420 18.799594 -86.871647 -13.733061 15.395147 92.883996 14.506797 16.641221 -145.075172 3.799080 46.729846 0.000000 0.000000 0.000000 54.888181 13.912851 -53.517991 -162.519013 -15.357911 8.437003 23.189612 -0.663965 1.549510 161.168012 -42.663594 -137.875779 -9.128645 11.070455 13.566249 -34.681346 -15.887698 -31.080457 -23.159819 1.379177 3.220396 38.829055 13.410647 6.283833 45.674246 13.933659 7.565908 -71.458622 -14.155969 -49.824395 -2.635757 4.099878 63.158471 -4.475513 37.869865 -125.891317 -94.148093 58.453702 175.853363 -7.954139 52.690700 -68.839411 -90.572003 44.444000 51.240181 8.767310 13.253755 -107.798194 -22.749454 39.258258 -128.018079
0.118569 0.974321 -0.046009 68.284552 -13.865044 20.330404 -85.002294 -15.376004 9.733619 94.956681 10.043422 17.453948 -147.011727 3.324336 45.932921 0.000000 0.000000 0.000000 53.085406 12.038992 -52.045249 -162.729918 -4.656469 -0.848904 23.123041 -1.924278 4.496284 173.520467 -51.405151 -168.713408 -1.630965 20.171838 15.874052 -38.841558 -11.716767 -28.582264 -23.180058 0.953782 2.226257 41.607888 14.794892 4.645935 41.366518 13.905417 5.775381 -71.643069 -16.414594 -56.013885 -1.605679 5.170253 62.416005 2.429486 38.842778 -118.123851 -95.011714 58.029588 174.470193 -6.073379 50.501639 -65.507750 -92.672308 41.588171 41.043420 11.252763 8.577853 -103.182511 -15.345177 32.153023 -124.577843
0.117311 0.977788 -0.039587 70.552893 -12.669390 17.837088 -87.125839 -13.301527 13.385126 92.906199 14.535990 13.393992 -145.627967 8.713545 45.820843 0.000000 0.000000 0.000000 55.565720 14.444309 -52.066984 -167.721383 -26.942481 22.544541 23.161857 1.342477 -3.134582 148.622269 -55.393268 -112.712877 -11.815984 2.086066 7.607645 -38.052475 -17.559885 -26.230496 -23.158433 1.403588 3.277480 40.454123 16.245760 6.298668 42.585858 18.041717 8.096816 -66.710165 -10.252672 -47.516285 -11.804617 8.263731 58.664852 0.294284 40.025025 -124.355256 -96.809839 58.276566 173.391818 -7.659896 51.559831 -67.510291 -94.291883 46.735319 45.504911 13.226726 12.601742 -106.867345 -20.060977 37.199755 -126.336338
0.118176 0.975125 -0.044384 69.188255 -13.742590 19.821384 -85.223425 -14.828032 11.882185 92.592994 11.274511 17.718584 -146.154902 3.404797 47.775928 0.000000 0.000000 0.000000 54.222559 12.478533 -55.837264 -162.925007 -7.926760 1.854476 23.141200 -1.677555 3.918468 165.366997 -46.403590 -150.504979 -5.843921 14.122820 14.581933 -36.601822 -7.532928 -28.819561 -23.188904 0.689634 1.609436 32.037296 15.067658 1.614594 39.271960 19.870346 6.426070 -77.025620 -17.807819 -36.743198 2.325348 2.522430 46.438851 1.734924 40.081077 -114.529851 -109.330942 55.174657 162.811309 -10.194183 48.034360 -67.222490 -84.959127 38.608767 44.054976 8.967186 13.119214 -98.463381 -27.426906 43.051518 -132.026144
0.125073 0.976463 -0.048253 69.208668 -14.135770 20.374748 -84.699817 -15.636052 8.999306 91.149614 11.895860 13.944346 -143.076193 7.319747 46.611030 0.000000 0.000000 0.000000 50.712424 9.401111 -57.797237 -163.455761 -9.965107 4.963708 23.180142 -0.951610 2.221185 163.261042 -29.235499 -124.956009 -22.044363 16.480217 -1.106753 -37.007662 -10.912454 -25.155244 -23.181691 0.910801 2.125869 47.236866 20.247300 5.574919 39.582790 13.480027 4.586375 -62.089112 -7.091750 -69.892983 -11.381077 8.614080 78.913755 -9.436550 45.675713 -129.726018 -111.677476 57.312122 162.056523 4.423841 60.005315 -61.959718 -104.831437 46.227823 41.848658 9.546363 15.543257 -108.421152 -24.853194 42.182305 -128.675775
0.119873 0.978159 -0.038183 71.250894 -12.077613 16.795390 -88.101483 -12.469357 14.089233 91.917132 14.376604 13.126659 -143.719824 9.454472 47.249146 0.000000 0.000000 0.000000 52.624975 11.492813 -55.740875 -167.579502 -25.816965 21.901397 23.167991 1.225379 -2.860842 156.802960 -48.187111 -114.812930 -12.203667 1.799863 7.778039 -39.129295 -10.636177 -23.584837 -23.185229 0.809921 1.890285 35.764669 15.842336 2.230563 43.695150 17.573440 5.853769 -66.677849 -8.614388 -58.347037 -9.812361 8.645966 71.684980 -3.468770 39.626681 -127.404200 -94.786072 58.967586 175.560219 -5.125624 56.137687 -69.004990 -96.454324 49.981740 48.954674 10.905183 12.354721 -108.440570 -19.325811 37.120221 -125.392674
0.121987 0.976549 -0.037239 71.729567 -11.666037 16.086343 -87.177166 -11.837005 14.798845 93.980539 10.716722 18.601910 -148.640960 3.145694 48.106705 0.000000 0.000000 0.000000 54.150909 11.886553 -55.319147 -160.358150 -2.715523 -3.619909 23.085664 -2.351435 5.498199 -83.423473 -85.001019 79.361355 -0.033441 -6.832353 12.080561 -40.670398 -3.032565 -27.165313 -23.197502 0.231254 0.539603 28.905113 14.948674 -0.911231 41.290676 21.850597 5.842402 -75.363140 -13.704312 -43.691457 -1.278220 3.689168 55.241540 2.371099 35.213042 -114.581338 -96.129540 57.345728 173.141896 -14.048448 44.325399 -67.139683 -80.948072 40.701839 49.776788 9.480214 7.359859 -102.353465 -15.040731 31.822288 -124.915312
0.121738 0.974002 -0.037473 70.280209 -11.359193 16.085059 -87.771735 -11.771027 13.353057 93.297082 10.919493 16.262153 -144.871399 5.362703 46.958180 0.000000 0.000000 0.000000 50.399704 9.069506 -53.553579 -164.574642 -11.255634 6.048101 23.177337 -1.021366 2.384127 176.789067 -58.352932 -168.994036 -2.863780 10.936697 16.183402 -37.880597 -5.214438 -25.460906 -23.194603 0.442529 1.032643 32.610842 13.344513 0.636922 50.248064 13.922733 4.371051 -76.986881 -15.975832 -54.468018 3.006067 3.150469 65.182589 3.122341 39.037384 -113.504368 -103.427287 56.567143 167.590153 -18.632336 50.762967 -81.023514 -79.564716 49.681390 55.645787 11.439171 11.101395 -100.978504 -20.136819 37.793798 -126.737207
0.118826 0.975539 -0.037962 70.143843 -11.815068 16.767845 -88.025669 -11.844043 16.579680 94.239147 14.144650 16.724316 -143.777828 4.617792 47.879757 0.000000 0.000000 0.000000 50.200028 10.347531 -54.113162 -166.470317 -13.668683 8.867369 23.187155 -0.749294 1.748723 172.676087 -64.540021 -162.695093 -0.695722 7.237623 18.744985 -38.421758 -10.024438 -27.646604 -23.185598 0.798655 1.863977 34.014340 14.227156 2.240537 48.423758 12.475686 4.426810 -70.017373 -11.719934 -58.307933 -2.716451 3.805877 69.647746 -2.414839 36.176532 -119.932523 -90.330493 58.104039 178.865895 -16.060502 50.969163 -77.800239 -80.999533 47.223042 55.627647 9.434537 11.419654 -103.186414 -19.332272 35.122187 -126.119821
0.119715 0.975384 -0.041620 69.978379 -12.889391 18.335319 -86.449361 -14.238932 8.766057 92.143568 4.663261 20.896379 -147.866534 -1.575202 46.033001 0.000000 0.000000 0.000000 53.850687 8.934177 -56.835321 -150.934996 13.799901 -19.849373 22.769742 -4.563085 10.732418 -37.163244 -56.300720 27.620962 17.506876 -37.171429 6.867612 -41.724603 -3.174126 -29.866859 -23.198157 0.145895 0.340425 31.772747 10.651400 -0.701840 48.373549 17.934766 5.633289 -72.852162 -14.615375 -45.110865 0.958993 1.069680 51.875267 -0.069308 34.812724 -111.815587 -94.960425 57.311231 174.568329 -22.163462 48.784640 -82.775181 -73.651149 43.535888 57.824509 7.124722 11.935289 -98.970384 -23.399283 39.488421 -129.012382
0.120293 0.976774 -0.040422 69.989818 -12.365607 17.592605 -87.645175 -12.169940 18.881896 93.708299 20.568213 11.974115 -145.735424 9.438796 44.237222 0.000000 0.000000 0.000000 53.247060 12.001541 -48.942373 -169.363572 -22.552894 19.927395 23.176657 1.037567 -2.421974 164.493550 -37.019414 -109.555417 -13.774260 3.336731 7.158033 -40.800975 -20.818728 -25.002348 -23.148146 1.572915 3.673573 45.097083 20.537396 7.712980 34.968380 16.347169 5.658371 -66.630902 -8.744679 -77.655492 -6.639690 11.249088 90.598010 -6.737587 43.531253 -134.925597 -95.597201 60.327330 175.490571 21.766077 56.151339 -43.349615 -121.585526 45.066868 33.318762 14.821408 12.487154 -116.630914 -15.491835 34.074123 -122.459972
0.123061 0.975216 -0.046815 68.774328 -13.798815 20.053131 -84.134378 -14.815652 12.283315 92.268259 14.639179 14.329772 -145.453881 7.043876 46.360357 0.000000 0.000000 0.000000 51.735954 11.181706 -52.050390 -167.931742 -19.545664 15.377342 23.196856 0.291832 -0.680963 157.351256 -50.412697 -125.441117 -25.041049 10.682485 -10.168348 -39.889872 -10.445277 -24.921824 -23.185570 0.799518 1.865994 42.910046 20.055049 3.649577 36.293355 12.882984 3.390294 -63.571553 -8.900182 -67.570957 -11.445132 11.338102 73.918087 -1.787644 44.558690 -127.322031 -101.501746 59.094347 169.941519 -2.207856 54.503230 -64.682682 -103.023873 46.776460 38.205325 15.054887 9.709803 -108.276535 -14.442801 32.576540 -123.161672
0.123484 0.976324 -0.042155 70.194879 -12.717741 18.021836 -86.084428 -13.595599 11.568892 91.531534 11.865331 14.735374 -146.455961 6.351660 45.131875 0.000000 0.000000 0.000000 54.808788 11.386825 -54.585195 -162.963827 -14.258185 8.381324 23.192881 -0.529492 1.235613 161.901581 -29.499514 -120.479232 -19.512051 8.769951 -0.452252 -37.875930 -13.078357 -26.635719 -23.176420 1.043148 2.435014 41.126289 18.178183 4.556925 36.240724 15.671617 5.160396 -66.923009 -9.730493 -67.851703 -6.791711 7.506467 78.470893 -6.751665 46.630444 -127.500859 -113.124205 57.138198 160.674928 7.043780 58.542158 -58.715759 -107.545194 47.694553 37.978275 12.129473 16.414520 -107.265090 -25.588837 43.188737 -128.990986
0.117580 0.975521 -0.047308 68.249568 -14.428416 21.160232 -85.590102 -15.810493 11.793024 93.670873 12.622081 17.052920 -145.322998 3.973205 47.064019 0.000000 0.000000 0.000000 52.936254 11.454703 -55.442269 -161.408528 -4.606897 -1.317445 23.117805 -1.989707 4.649618 169.723682 -20.653039 -149.449279 -25.113796 46.951857 -2.524497 -40.215828 -13.247656 -28.688375 -23.179231 0.974821 2.275399 39.130438 13.289236 3.950377 38.284544 12.676769 4.564188 -71.844681 -16.665415 -44.533298 -1.592688 3.736684 54.280538 -2.128870 37.973995 -124.163326 -92.195696 58.591581 177.245373 9.561619 47.806993 -46.365759 -102.128180 32.435188 35.588278 9.436883 10.194344 -108.718991 -17.261679 34.150991 -125.208968
0.118196 0.974675 -0.041014 69.433773 -12.731282 18.293701 -86.431780 -13.970076 9.789305 92.957287 11.763120 13.047551 -144.601118 8.478169 44.557210 0.000000 0.000000 0.000000 50.972405 9.599368 -52.429126 -164.699839 -16.570530 11.818208 23.198454 0.081969 -0.191261 164.185818 -42.328271 -133.839036 -20.408934 12.773860 -3.104586 -40.347846 -9.160388 -22.089497 -23.189232 0.677857 1.581941 40.415505 19.211216 2.306075 40.418862 11.477771 2.372319 -71.753399 -14.164459 -46.550684 -5.834728 6.697210 53.457699 5.233829 41.853132 -117.488067 -99.988420 57.687895 170.686917 -10.984268 47.001310 -67.642082 -90.741214 43.990486 38.265971 16.382479 11.247224 -99.327910 -20.852601 38.450648 -127.683907
0.122774 0.977503 -0.039421 71.285480 -12.241076 17.010413 -87.930713 -12.991748 11.755680 92.842764 15.441050 9.488451 -143.256403 12.935088 44.358132 0.000000 0.000000 0.000000 52.911389 11.800058 -56.887029 -166.376942 -21.139744 17.778590 23.171297 1.157336 -2.701819 158.748661 -41.619922 -108.230040 -19.630831 7.026264 -1.250815 -38.323086 -16.287393 -20.556423 -23.162864 1.323964 3.091300 43.552588 19.348651 6.634593 36.094467 15.619117 5.721920 -67.782630 -9.778019 -54.199758 -9.307653 7.950518 66.430338 -5.548004 46.917358 -128.750267 -111.801117 57.268601 162.024398 6.756935 53.912341 -54.540469 -105.753342 44.065399 34.630728 13.059332 16.116448 -105.080980 -25.846772 43.060418 -129.544249
0.121814 0.976299 -0.039173 70.546109 -11.947365 16.830108 -88.043298 -12.262333 14.737088 92.190186 16.511888 11.092597 -143.066737 12.276753 47.137730 0.000000 0.000000 0.000000 53.649698 12.947630 -56.101099 -166.927074 -23.620617 20.239282 23.168486 1.215423 -2.837573 158.878151 -45.181448 -112.442960 -11.998131 2.284881 8.782244 -37.080606 -14.340635 -22.718436 -23.170905 1.165619 2.721177 37.519591 16.659874 4.373723 43.324683 15.987333 6.209036 -64.945745 -6.888391 -68.064788 -9.823194 9.970267 81.944803 -5.835142 41.107143 -129.957177 -97.966029 59.191074 173.223654 -4.945255 59.016686 -72.151341 -97.126792 52.535405 51.549143 10.390444 15.591027 -109.262294 -24.799805 42.751945 -128.327488
0.119070 0.977124 -0.048347 68.756334 -14.802373 21.501220 -85.327241 -16.563014 8.993890 92.140329 9.075140 18.470904 -146.646364 0.766899 45.158124 0.000000 0.000000 0.000000 55.193307 11.321642 -55.654004 -158.799507 -8.049522 0.255688 23.132734 -1.796827 4.197726 164.180267 -26.384623 -144.279704 -12.154987 22.685274 12.334656 -38.512919 -9.078281 -29.712270 -23.188329 0.709810 1.656538 37.149788 12.613886 2.539866 44.102662 13.351470 5.011021 -69.772000 -15.465904 -46.674944 -2.310349 2.697675 55.529793 -5.972296 43.394341 -123.002600 -112.748910 56.043200 160.755251 0.647087 56.369080 -62.399368 -99.314884 41.915295 41.085284 9.401221 18.030769 -104.423122 -32.983688 47.555322 -134.562579
0.121990 0.976369 -0.034146 71.673092 -10.574546 14.604390 -89.328602 -10.641093 14.168448 91.661737 16.217669 8.527712 -141.620402 14.898299 45.818219 0.000000 0.000000 0.000000 51.362297 10.604751 -56.132792 -165.070596 -24.637984 21.283190 23.143067 1.650076 -3.854147 158.884705 -43.963266 -106.970835 -12.034869 -0.843776 7.087711 -40.498841 -14.102406 -18.499323 -23.175460 1.065488 2.487207 37.323336 20.169768 2.926306 42.616833 15.306328 4.153118 -69.959523 -8.991714 -71.684271 -4.881617 8.854860 83.035703 -0.543897 40.914383 -124.114428 -90.348914 59.354167 179.521119 -12.635299 54.345762 -76.615948 -89.750293 53.875613 49.168034 14.001668 11.983886 -103.022064 -19.279958 37.827416 -125.449194
0.122887 0.980115 -0.042647 71.195887 -13.170612 18.321619 -86.873913 -13.279286 17.510790 91.474166 20.354460 11.099967 -145.905512 9.532787 43.651233 0.000000 0.000000 0.000000 55.057871 13.444641 -48.406208 -170.335410 -26.663938 24.565932 23.144595 1.627247 -3.800718 165.411812 -36.659450 -102.282928 -7.183083 -4.712921 14.981663 -40.349016 -17.686493 -23.793780 -23.161693 1.345477 3.141597 43.981967 21.976571 6.217727 33.524279 11.682072 3.147156 -62.935300 0.604939 -99.874876 -11.720276 19.119871 108.414862 -5.025249 42.108037 -134.168726 -83.133609 60.630304 -173.603326 16.279038 60.943976 -50.794052 -121.643787 49.814407 34.849023 14.688605 8.826351 -117.043488 -10.274457 28.090361 -119.827314
0.122437 0.979488 -0.042771 71.888827 -13.559251 18.622902 -87.186285 -14.517014 11.281674 93.362630 7.845338 20.238663 -149.342480 -1.909803 44.607436 0.000000 0.000000 0.000000 51.334868 7.634751 -52.461574 -149.954480 13.037655 -18.435842 22.824536 -4.264730 10.020459 -42.754069 -41.722137 27.815476 9.714642 -47.359042 11.045549 -47.076245 -3.083817 -28.038139 -23.198580 -0.023153 -0.054023 32.774556 8.917378 -1.382263 48.437453 20.595003 6.560241 -77.429722 -16.887526 -45.135893 4.253227 0.059638 52.795676 -1.115566 33.065792 -113.905699 -84.241252 57.456922 -176.201990 -24.360611 48.641123 -83.169936 -73.925078 43.145719 57.160002 6.124739 8.241570 -98.632224 -16.658667 32.438016 -125.475541
0.121997 0.976611 -0.043310 69.653656 -13.061193 18.688095 -86.354022 -13.569664 15.129355 94.498327 17.128157 13.421066 -144.947439 7.177615 44.207343 0.000000 0.000000 0.000000 51.928649 11.947671 -50.177833 -176.084290 -33.987204 34.403736 23.063302 2.572977 -6.018715 144.634515 -60.017135 -100.464305 -16.080597 0.100607 -0.280875 -38.617967 -11.603128 -23.872743 -23.180157 0.951240 2.220319 34.666543 18.675158 2.725484 40.818578 15.662562 4.662410 -63.078263 -5.236521 -81.844629 -11.561656 15.395625 87.628778 1.174855 41.905463 -125.256665 -89.951362 59.536234 179.744438 -13.411980 56.738314 -79.459248 -97.571801 55.455600 46.199238 16.512614 11.518056 -108.765787 -15.972929 33.931875 -123.418689
0.120143 0.977214 -0.048321 69.198225 -14.794850 21.317663 -85.511208 -16.861015 6.419155 93.626407 4.243951 21.479765 -152.368444 -2.681094 44.232874 0.000000 0.000000 0.000000 57.719446 11.606704 -48.840829 -158.292044 0.282478 -7.505900 23.006193 -3.066022 7.179663 -73.738687 -79.354531 66.553571 8.460553 -19.524397 17.077114 -40.734032 -5.165976 -31.179345 -23.195767 0.372383 0.868939 33.504395 10.704261 0.699726 46.244858 16.149337 5.850692 -70.176705 -15.665115 -64.018826 -0.990847 2.533847 64.962756 1.424950 37.788514 -111.432923 -97.827567 57.549617 172.109664 -16.458610 51.066475 -76.856090 -82.922462 41.973012 49.607710 7.324614 9.554051 -103.046367 -16.992546 33.992290 -125.076657
0.122033 0.977224 -0.039329 70.883852 -12.142000 16.997369 -87.037733 -12.274912 16.039123 91.747555 15.807024 13.945120 -145.360141 6.326406 44.685870 0.000000 0.000000 0.000000 51.305074 9.590403 -50.666133 -169.766138 -32.312685 28.757391 23.123035 1.924350 -4.496453 146.837703 -59.234813 -111.577685 -19.630306 -1.348793 -7.071720 -38.626958 -9.658658 -24.771671 -23.186970 0.755333 1.762825 34.390659 14.891364 1.949169 40.233790 13.795986 4.012662 -65.960435 -7.079436 -75.354750 -9.532520 12.508854 82.386643 2.166782 40.262642 -122.270036 -88.343286 59.265281 -179.089969 -16.943179 54.200280 -81.079199 -90.915479 55.353281 50.034575 15.927438 9.937134 -106.191302 -15.069082 33.409579 -123.209345
0.118839 0.976601 -0.045559 68.850929 -13.906044 20.178908 -86.101774 -14.778726 14.246118 92.395698 15.136040 15.569257 -146.272246 4.192574 44.434827 0.000000 0.000000 0.000000 56.382314 13.556773 -50.293712 -165.941302 -18.314613 13.217889 23.198372 -0.103701 0.241970 169.990654 -22.388355 -119.811572 -19.521076 10.239596 1.745629 -36.069576 -14.398688 -28.881240 -23.169465 1.195522 2.791061 41.100167 17.959703 5.448597 38.337147 18.298309 6.979764 -64.736165 -10.294816 -63.607545 -10.566200 10.643170 72.791164 -2.689779 42.177973 -129.819696 -95.443654 59.325652 175.232426 7.273648 56.522957 -56.470296 -111.038038 45.625469 35.872584 14.864279 12.770133 -110.374302 -18.536632 36.515147 -125.020054
0.116136 0.974398 -0.043474 68.411271 -13.449396 19.681514 -85.460214 -14.975280 9.209464 91.511012 7.241571 19.305381 -146.528949 1.581164 47.462578 0.000000 0.000000 0.000000 55.798262 12.740222 -53.725007 -162.018396 -12.324828 5.053452 23.160378 -1.369203 3.197073 167.142654 -51.860942 -154.896268 -2.404131 8.895481 18.583957 -38.454887 -8.791905 -30.583000 -23.189610 0.664012 1.549619 36.870368 11.032645 2.327039 42.884027 13.821730 5.244323 -68.137888 -13.264905 -49.809287 -4.451203 3.852797 54.580048 1.980678 37.479294 -112.806377 -99.588303 56.907713 170.539054 -13.014806 50.456547 -73.819631 -83.882114 42.810850 48.425417 9.099261 12.065325 -101.868772 -21.272949 37.748862 -127.400383
0.118245 0.975525 -0.038337 69.852003 -11.943399 17.039412 -88.022359 -13.013410 10.194390 92.873313 11.403864 12.503568 -145.270940 10.172205 44.690472 0.000000 0.000000 0.000000 54.264894 11.971832 -51.818973 -165.541582 -26.201465 21.563219 23.160389 1.369021 -3.196648 155.600928 -50.925154 -118.317191 -10.988737 -5.538457 6.738258 -40.342180 -13.054007 -22.487003 -23.179670 0.963719 2.249467 43.152526 18.256888 4.205501 45.410515 12.843681 4.222096 -66.140975 -9.058287 -59.600980 -10.297223 9.959035 67.060304 3.342089 41.724935 -119.212477 -100.215563 58.083208 170.404663 -12.271624 51.770070 -74.180820 -92.898074 51.240299 42.265181 17.480356 13.002776 -101.372917 -21.576388 39.047006 -127.276595
0.116562 0.972975 -0.043375 67.561747 -13.076348 19.443841 -84.871083 -14.723256 8.332949 93.643836 11.478775 12.907666 -145.174370 8.029929 43.129576 0.000000 0.000000 0.000000 52.481921 10.753632 -51.178507 -170.097179 -23.903181 21.455029 23.168884 1.207366 -2.818742 153.195756 -54.219664 -114.095782 -21.671763 9.963899 -4.784312 -38.937581 -12.528311 -23.080549 -23.178543 0.991990 2.315506 37.042901 20.960004 3.016183 36.356643 13.536670 3.183242 -66.375827 -12.098696 -60.928064 -8.979504 10.788531 66.091353 4.810828 43.254027 -121.593215 -99.585374 58.852969 170.805081 0.519580 52.620518 -61.500500 -105.815226 46.347562 33.015065 18.447336 11.158799 -105.838067 -17.117553 35.653089 -124.610995
0.123546 0.974940 -0.046417 68.509682 -13.437020 19.628021 -85.852525 -14.103919 15.128163 91.853246 18.006730 12.244571 -145.725983 7.221659 42.150488 0.000000 0.000000 0.000000 53.911602 11.460837 -46.386034 -169.720341 -19.272670 17.186346 23.192220 0.559302 -1.305191 172.586610 -22.651909 -99.218287 -16.527681 2.861107 2.674396 -39.674572 -18.112439 -25.148817 -23.160663 1.364094 3.185128 47.364726 20.771787 7.274245 34.245717 11.807944 3.688261 -65.089322 -6.589057 -107.949703 -3.764219 14.568601 113.614233 -3.459720 47.808533 -130.265462 -101.671491 60.249800 170.437556 21.949995 62.128245 -47.785907 -127.839988 49.677406 28.682541 17.395837 12.807553 -116.408771 -15.111077 35.457143 -121.770279
0.112690 0.972309 -0.051336 65.293445 -15.368877 23.785800 -83.935000 -18.117752 6.431607 94.185553 5.898921 21.558774 -149.667261 -2.340382 45.155643 0.000000 0.000000 0.000000 57.786992 12.866117 -49.807753 -160.597926 5.830339 -11.932529 22.894044 -3.851709 9.038323 -166.476689 -33.362319 156.517379 28.798977 20.417680 44.246506 -39.328737 -7.631733 -32.236200 -23.191956 0.570749 1.331913 34.460153 10.270934 1.680030 40.990516 10.889462 3.600377 -69.969678 -18.519528 -46.494145 -1.175861 3.612412 48.026792 4.856354 39.346588 -111.636813 -104.926252 56.095446 165.830578 -6.502817 43.594800 -60.237776 -88.306497 32.520893 35.515475 12.128467 12.366856 -101.487145 -23.087214 39.150803 -129.374675
0.123266 0.976100 -0.032537 72.548573 -10.170515 13.827508 -88.275132 -10.383041 12.263678 92.624416 6.441482 18.658953 -147.474681 1.722594 46.138554 0.000000 0.000000 0.000000 53.923064 9.887548 -57.635376 -154.842685 -6.076638 -2.646030 23.117502 -1.993418 4.658317 -26.969277 -82.223039 20.629941 -3.950889 -10.048319 9.579518 -42.660024 -2.150511 -26.527168 -23.198524 0.057012 0.133028 37.102985 15.410811 -0.958069 44.877698 18.167402 4.826198 -78.116056 -13.532399 -49.473595 2.257950 2.133552 58.037532 4.463153 34.995013 -109.076305 -90.691490 57.583506 178.293335 -22.837152 45.869874 -79.799565 -71.627298 46.146135 56.100869 10.345400 9.198790 -94.626115 -20.156418 37.394658 -127.670561
0.121217 0.978710 -0.030970 73.708703 -10.089956 13.433895 -88.648728 -10.169337 12.818908 90.865169 10.429497 13.737076 -139.981990 7.730424 48.234332 0.000000 0.000000 0.000000 46.210866 5.281729 -62.639590 -162.783043 -16.203051 10.329399 23.198138 -0.149122 0.347953 146.702354 -64.537747 -128.379788 -15.068208 9.575773 1.653990 -41.120539 -3.330702 -21.481266 -23.197836 0.192552 0.449294 29.326698 14.938447 -1.510147 46.552646 16.611195 3.244234 -81.673679 -13.807095 -37.490749 4.182222 1.452688 51.337692 2.029536 32.479729 -112.662154 -85.189727 57.052102 -177.028314 -23.539795 47.174904 -80.957136 -70.684641 46.275717 62.581738 7.766862 8.900460 -98.689832 -18.768722 35.931459 -126.524615
0.123606 0.975953 -0.038412 70.637504 -11.540514 16.233759 -86.818855 -11.514826 16.418187 92.079076 15.740133 13.885127 -142.137378 5.602358 45.060184 0.000000 0.000000 0.000000 49.001390 8.773799 -54.629883 -166.591049 -24.650895 19.673237 23.181646 0.912021 -2.128720 156.526544 -51.082612 -123.713714 -18.570156 8.054544 -1.389684 -37.585379 -10.771439 -25.163395 -23.182765 0.881400 2.057203 29.434473 14.647986 1.629501 45.713618 14.864415 4.840312 -64.518072 -5.358514 -74.892021 -9.618929 10.971218 89.533025 -5.676457 38.518694 -130.943281 -87.867400 59.712243 -178.350856 -14.294909 56.396855 -80.684666 -88.332589 54.836157 60.310162 11.183341 12.077412 -111.169476 -18.153736 36.402257 -124.452229
0.129977 0.971074 -0.026122 71.705225 -7.303140 10.093996 -87.305692 -5.967966 19.882341 94.952573 15.764830 13.190274 -143.048547 7.091142 44.506943 0.000000 0.000000 0.000000 48.567307 9.378005 -55.424373 -164.160656 -1.860847 -1.857676 23.138776 -1.712565 4.000426 -20.606908 -60.309432 16.104785 -3.311080 -18.421580 11.237935 -38.944242 -9.100490 -22.322705 -23.186640 0.765977 1.787677 31.024759 19.860764 1.114468 47.330970 23.712603 7.908295 -72.501547 -7.851861 -59.514384 -0.645285 2.595227 76.759032 -4.108737 37.562393 -121.472086 -92.671894 59.219176 177.016452 -6.806424 52.216693 -70.282693 -83.478584 51.498695 59.075772 8.897812 11.755543 -105.985201 -19.394521 37.873272 -125.243754
0.133957 0.976655 -0.030231 73.844886 -8.725945 11.595153 -87.760594 -9.474857 5.386338 91.181516 5.786527 9.529388 -136.790890 8.921191 41.158303 0.000000 0.000000 0.000000 43.549950 4.781500 -60.002734 -168.492698 -27.897208 25.124845 23.105760 2.132541 -4.984512 121.414774 -65.458696 -85.864913 -17.978553 -6.344642 -5.190807 -36.458071 -1.873769 -14.972932 -23.197694 0.209771 0.489473 33.870159 28.152487 -0.938435 42.197324 14.974936 0.479965 -77.707570 -13.071118 -86.132619 4.161835 3.929823 98.549526 1.942166 40.378820 -118.522245 -92.408691 59.494836 177.991176 -13.845736 57.416905 -80.509239 -86.672999 58.656513 59.329866 11.308762 7.374253 -104.680102 -12.978499 32.036434 -122.483744
0.133374 0.980845 -0.033456 74.751601 -10.077834 13.168646 -86.912705 -11.471336 -0.087673 90.323700 1.230363 10.550039 -134.566157 6.164085 40.080609 0.000000 0.000000 0.000000 43.730564 7.031111 -61.388927 -169.523124 -36.242067 32.833593 23.013857 3.004642 -7.034927 122.485275 -61.404808 -78.502815 -10.743708 -12.787712 0.258057 -36.398764 4.115312 -13.678975 -23.197061 -0.274059 -0.639488 36.094489 31.650596 -2.181561 44.338284 8.246729 -5.567908 -71.843153 -6.463460 -89.748063 -4.143918 8.625245 93.999021 5.020482 38.161594 -111.025077 -86.914121 59.045355 -177.750259 -36.043068 51.911999 -101.824541 -63.094393 56.455331 73.051718 10.475802 8.328739 -97.882628 -14.554225 31.789195 -123.428569
0.134329 0.982208 -0.032468 74.501261 -9.580633 12.577569 -87.322788 -10.360555 5.538648 91.929080 9.073640 6.840179 -133.955612 11.536495 42.053206 0.000000 0.000000 0.000000 43.233484 9.027051 -58.222260 -168.521571 -26.839435 24.224557 23.087093 2.336560 -5.463272 157.664793 -41.781681 -91.684479 -3.454811 -11.122658 14.131161 -39.721709 -2.635899 -11.394919 -23.197587 0.221961 0.517918 30.409259 19.307755 -1.204529 51.983638 -2.930362 -7.426218 -69.866084 1.060271 -120.379427 -6.805143 9.529240 133.498654 -10.175908 38.973980 -129.163567 -79.440825 59.879793 -170.211811 -44.463502 54.740857 -117.507091 -52.688872 61.979939 92.530300 10.779301 12.402692 -103.907208 -16.904404 33.497999 -123.070848
0.136015 0.986642 -0.026972 77.696458 -8.210063 10.184255 -86.787068 -8.583375 5.440194 90.049469 7.359069 6.905325 -130.408209 8.561216 40.502584 0.000000 0.000000 0.000000 37.954615 5.186417 -63.812599 -172.663973 -36.099981 34.555231 22.944098 3.523335 -8.260077 123.821995 -59.602372 -70.455701 -12.104112 -10.041093 -1.996129 -43.045057 1.792094 -9.758432 -23.197892 -0.185153 -0.432030 3.087096 19.352718 -7.616958 54.082395 14.176068 -4.091015 -77.321271 -7.592504 -107.739293 -1.390737 -2.054622 121.344088 -8.470783 34.199616 -121.417845 -71.812295 58.544336 -163.962040 -47.935784 52.092459 -117.542319 -46.872695 54.120129 102.422859 3.112412 7.835714 -104.604650 -12.501379 28.384616 -121.633359
0.133666 0.984346 -0.022524 77.717185 -6.941834 8.610158 -88.612557 -7.156582 6.341513 91.622513 7.575744 6.089003 -130.529363 10.156440 40.597889 0.000000 0.000000 0.000000 38.226848 5.635327 -61.867664 -169.903299 -37.788118 34.790277 22.912278 3.735533 -8.762735 106.854887 -65.321355 -67.521745 -9.134599 -15.634496 2.887766 -41.172054 3.330210 -7.932288 -23.196888 -0.289178 -0.674770 7.653670 23.738386 -8.180813 51.565473 19.159388 -3.390172 -77.341524 -6.551092 -84.041775 -0.226394 -1.436363 91.626308 -1.184045 32.328821 -108.657623 -70.522182 57.074641 -163.723403 -42.641952 46.568614 -104.505809 -47.300085 49.242275 89.530109 5.150534 8.357605 -98.397119 -14.402095 30.170687 -123.334636
0.138268 0.988182 -0.030719 77.855800 -9.320923 11.526528 -87.035677 -9.928395 3.863188 90.486620 7.576879 6.227495 -130.383752 9.568302 40.700190 0.000000 0.000000 0.000000 39.609197 7.811674 -63.229526 -172.389656 -30.731426 29.316953 23.015657 2.990045 -7.000516 148.521428 -51.928269 -89.881618 -7.522068 -12.188695 4.014569 -39.698255 1.429514 -9.023888 -23.198367 -0.104682 -0.244260 12.609637 30.079765 -7.914824 56.053231 11.213607 -7.753415 -72.843216 -0.416193 -109.818495 -7.604541 5.108567 119.325974 -8.222191 35.769668 -121.792670 -71.426688 58.835010 -163.567119 -47.333177 52.847834 -116.190607 -50.785392 54.961798 93.843067 4.491569 9.417278 -102.162523 -14.045956 30.095162 -122.032785
0.133068 0.986814 -0.029031 77.250907 -9.071929 11.340472 -87.295400 -9.802494 2.928397 92.523248 7.396799 5.340171 -131.457283 11.463113 41.194443 0.000000 0.000000 0.000000 39.959066 8.520671 -62.399267 -173.756287 -32.102701 31.221548 22.968445 3.351649 -7.854020 145.053073 -54.395560 -85.744526 -4.465001 -12.851348 10.865051 -40.579968 4.725449 -6.048658 -23.195417 -0.394746 -0.921128 24.779670 28.461401 -5.414621 54.709745 7.934710 -8.794684 -72.480185 -0.950329 -107.919326 -6.543784 6.214572 116.827601 -5.287790 37.229543 -119.047214 -76.870278 58.882202 -168.344176 -44.835182 54.027148 -114.313907 -53.035766 56.681478 90.252230 5.996987 9.875938 -100.511347 -14.991759 31.371327 -122.744840
0.128043 0.985128 -0.033745 75.475406 -10.865415 14.011085 -87.384597 -12.000058 2.947231 93.454156 8.269099 6.590935 -133.300502 10.864354 41.375591 0.000000 0.000000 0.000000 41.337726 8.873193 -58.442361 -173.312107 -31.017988 30.000960 23.007729 3.053824 -7.150894 150.732997 -54.123681 -98.195495 -8.198297 -11.469321 6.347095 -45.494744 0.236607 -9.168210 -23.198454 -0.081735 -0.190715 28.076389 23.910094 -4.190660 52.329232 5.904095 -6.105043 -69.462361 -2.803721 -92.847648 -7.841541 7.162439 99.312974 -4.119457 39.264747 -119.155755 -82.920338 58.842760 -173.700642 -41.410956 50.647134 -107.202851 -58.208679 54.978032 78.470943 10.075694 13.141752 -98.809827 -20.306739 35.564372 -126.140185
0.134294 0.988514 -0.030606 77.523618 -9.629993 11.978155 -87.211174 -10.480384 1.813381 91.242958 5.013380 7.374796 -134.804311 9.557275 40.245506 0.000000 0.000000 0.000000 43.416460 9.085234 -61.496507 -173.184553 -32.997045 31.569967 22.995934 3.146277 -7.368999 139.260649 -55.345334 -82.401216 -8.902605 -10.482119 2.921209 -42.156352 4.799549 -8.924989 -23.194979 -0.421127 -0.982695 34.397036 27.754206 -3.895192 52.893763 3.761334 -10.192034 -70.657519 4.819006 -117.056194 -9.491507 13.416137 130.319143 -9.303803 40.679783 -127.501851 -86.933064 60.062737 -176.221629 -38.669602 60.580735 -110.079643 -66.426762 62.585996 82.788529 7.479784 11.014096 -104.547129 -15.613940 32.776481 -122.532450
0.130812 0.987637 -0.030972 77.012731 -9.944847 12.481417 -87.418371 -10.864701 2.238025 91.899122 6.095020 6.999301 -135.163841 10.958456 41.490026 0.000000 0.000000 0.000000 43.450496 9.336105 -60.873685 -172.342114 -31.877987 30.125340 23.009991 3.035765 -7.108308 145.624824 -53.865891 -90.579625 -10.972736 -8.115458 1.871346 -39.501025 1.323161 -9.786060 -23.198428 -0.089441 -0.208696 28.746081 25.391696 -2.919944 49.923734 8.894168 -4.337208 -67.630775 3.051871 -95.729767 -12.131578 10.865482 105.701781 -6.848076 39.895769 -122.462008 -86.138404 59.240133 -176.090065 -38.147314 55.059975 -105.058566 -63.259484 57.043331 75.807327 8.319635 11.149471 -98.773563 -16.808118 32.331600 -124.000963
0.132066 0.981365 -0.034563 73.764343 -10.185546 13.547065 -87.405245 -10.642606 9.663138 94.748731 14.135709 6.784289 -136.210387 12.272171 42.209777 0.000000 0.000000 0.000000 44.844558 11.602795 -53.446232 -176.595734 -18.336363 19.172554 23.147420 1.584177 -3.699925 174.571339 -28.742321 -93.528867 -11.165537 -0.031451 10.943467 -42.194395 -7.454451 -12.418229 -23.191240 0.600781 1.402013 22.570372 20.588062 -1.798753 42.449906 4.242644 -1.951662 -72.621778 -7.246677 -124.405173 -1.709378 2.700715 142.149064 -15.406622 37.330335 -139.393552 -70.470653 59.442043 -162.009439 -44.752561 56.181341 -119.421014 -54.390445 62.796463 94.790439 9.753574 11.961052 -106.700852 -15.913200 32.183707 -122.428510
0.129524 0.981735 -0.034043 73.984199 -10.336792 13.693112 -88.636832 -11.479343 4.661873 92.139408 8.845810 6.747784 -133.198919 12.584607 43.143802 0.000000 0.000000 0.000000 44.941197 11.285891 -56.425245 -175.832182 -25.854767 28.069200 23.057302 2.629211 -6.150943 166.356422 -44.461759 -95.904646 -5.107735 -6.035271 17.843253 -39.520074 -4.494695 -11.925074 -23.195867 0.365725 0.853402 35.773748 23.266866 -0.082916 51.606262 -1.597741 -7.658201 -73.540147 -9.576947 -106.457109 -0.755303 0.071933 117.194301 -7.750469 34.759757 -124.965265 -66.723256 57.639925 -159.714359 -51.283988 45.537845 -121.877693 -39.888462 54.516504 102.469422 9.811184 12.456147 -103.307827 -17.976517 33.291916 -124.278883
0.125842 0.980359 -0.031273 73.589182 -9.694015 12.936575 -87.903318 -10.336848 7.741548 94.541240 10.688122 7.876854 -140.103725 12.871382 42.634258 0.000000 0.000000 0.000000 52.087849 16.234490 -52.736925 -175.587635 -22.401617 23.016410 23.120837 1.952087 -4.561449 171.150182 -34.887495 -98.679234 -11.005236 -1.540021 9.448174 -42.202200 -9.858674 -14.594643 -23.186072 0.783942 1.829623 36.370175 20.776672 2.135198 42.010632 3.492689 -1.439060 -71.965973 -7.707048 -89.213217 -1.881848 6.550169 106.998439 -8.989333 41.127766 -132.582364 -89.365504 59.601355 -178.837980 -29.077370 56.248812 -97.793820 -73.742948 61.723980 67.424459 14.238392 12.625350 -100.451412 -19.283053 34.996942 -125.530368
0.129194 0.981161 -0.043747 72.433042 -13.181027 17.930711 -85.624840 -14.781718 3.738510 90.316985 8.268913 10.489391 -141.008803 9.977217 43.585417 0.000000 0.000000 0.000000 53.836504 15.330005 -54.863416 -172.140637 -10.216838 9.157402 23.197636 -0.216465 0.505094 175.282863 -14.555492 -94.941348 -21.274941 1.618980 -7.584470 -40.945735 -8.765021 -18.578944 -23.189625 0.663477 1.548370 54.327133 25.855717 5.875657 37.409388 3.458953 -2.283610 -73.623747 -15.286794 -104.611400 3.194162 5.945633 114.683846 -4.924748 46.501484 -128.637916 -104.080882 59.206434 168.853948 -5.794211 68.471247 -78.685625 -108.690445 59.215550 44.672514 11.135667 13.848297 -107.636036 -20.401034 38.983424 -125.522367
0.126628 0.978250 -0.028161 74.486040 -8.783878 11.537842 -88.551712 -10.018252 1.422420 91.610805 0.376209 11.617355 -140.298601 10.160379 44.862774 0.000000 0.000000 0.000000 49.790228 10.936969 -59.852546 -172.788575 -26.788107 26.056834 23.120816 1.952351 -4.562068 149.885755 -56.155786 -104.693246 -15.784452 -6.985598 -4.059419 -38.905212 6.518190 -13.905434 -23.192926 -0.527418 -1.230770 28.282409 28.034565 -5.515006 44.528075 5.896964 -6.996352 -82.428648 -14.813862 -63.940583 5.319575 2.075208 70.404846 9.488500 34.461858 -103.076923 -88.594720 57.378851 -179.819824 -36.067453 45.991428 -97.117484 -56.641909 51.136271 72.451660 10.292439 7.569475 -91.387129 -17.552471 35.196128 -126.335296
0.130036 0.990211 -0.056256 72.545416 -17.403570 23.562030 -82.952127 -19.177611 3.260569 90.278477 6.019446 18.657460 -156.646530 0.076031 42.553422 0.000000 0.000000 0.000000 66.221937 16.962515 -44.050779 -165.478804 -12.078109 5.847818 23.167413 -1.236889 2.887746 167.254192 -3.421566 -103.253434 -33.124693 1.353596 -28.886291 -41.772932 -14.247538 -31.407987 -23.176025 1.052403 2.456635 57.286591 7.626552 7.892662 42.814217 7.421170 5.553302 -70.776124 -13.446807 -109.789541 -1.453218 9.916289 121.635672 -15.474350 47.485284 -141.111780 -114.101977 58.313611 160.843292 0.656370 73.753531 -71.417507 -127.759166 57.329420 35.255444 13.887237 19.277424 -113.152292 -28.368343 45.250154 -130.329785
0.115941 0.975397 -0.061533 63.919198 -17.746663 28.097838 -78.569567 -20.530807 5.473482 91.216967 3.169227 28.701296 -169.526732 -15.880906 41.209323 0.000000 0.000000 0.000000 79.179754 13.019051 -30.210045 -142.013679 17.104421 -26.282440 22.531137 -5.674570 13.406116 106.066702 56.358202 52.392856 99.238666 26.632540 110.056519 -35.808776 -14.133486 -46.003978 -23.167901 1.227163 2.865012 37.607051 -3.099345 6.558787 35.955936 10.945557 7.549887 -80.065342 -25.299168 -24.952184 4.568561 4.010490 36.867719 -8.883626 61.939915 -128.823172 -152.458150 37.333878 131.185638 32.211216 33.323485 -14.598192 -122.879438 6.839558 23.675919 14.745228 31.951683 -118.093928 -67.288569 60.383303 -162.331085
0.118561 0.987085 -0.041357 74.544395 -14.458403 18.925962 -87.888280 -16.168095 3.860239 91.775248 1.380488 19.942152 -152.662272 1.117995 46.164152 0.000000 0.000000 0.000000 61.410184 16.574417 -47.560348 -167.061078 -15.135610 9.274459 23.181171 -0.924703 2.158338 169.583574 -12.707737 -121.757042 -25.866411 6.909547 -14.065415 -39.920113 -1.183683 -28.200841 -23.198256 0.128172 0.299070 33.309029 11.583037 -0.233680 45.744348 6.632307 0.399617 -74.384565 -14.341121 -55.368420 -3.203965 3.315976 57.906346 3.380905 36.139810 -108.371915 -93.900640 56.707871 175.963645 -36.955167 42.992904 -92.153772 -64.295996 43.424233 58.350373 10.754807 13.990463 -91.294569 -28.921557 42.175992 -133.159071
0.130428 0.984782 -0.046184 73.489498 -14.197465 18.939877 -83.856629 -14.589499 14.480631 91.021538 14.351187 16.938124 -158.180163 3.911880 43.902491 0.000000 0.000000 0.000000 69.704880 20.624901 -38.250976 -167.661882 -17.371987 11.611353 23.195615 -0.382224 0.891904 166.806282 -11.412022 -97.718662 -26.399346 -3.126561 -25.090364 -35.639114 -11.346553 -30.452806 -23.173643 1.106513 2.583059 35.040820 17.275656 4.401329 31.953208 13.687926 4.441674 -77.073143 -18.750776 -86.941615 3.784353 4.623830 97.726262 -5.077218 47.101486 -127.785959 -111.289672 57.839483 162.384685 0.567408 66.039749 -68.109185 -114.007643 54.756055 37.801444 12.568466 12.445376 -107.300411 -18.875361 37.502245 -125.078595
0.125707 0.979921 -0.049730 70.959711 -15.144016 21.128749 -81.745096 -15.752381 14.450195 91.462891 17.904615 14.933187 -156.442873 6.414143 43.563334 0.000000 0.000000 0.000000 68.261253 21.162365 -36.858598 -171.515527 -10.564247 7.791393 23.183041 -0.873691 2.039200 169.562089 -8.784407 -92.795010 -30.810274 -4.776259 -30.427002 -33.536840 -14.823334 -29.772982 -23.155792 1.448949 3.383568 45.841618 19.637674 9.166224 16.420307 19.858308 6.550174 -86.253368 -27.432703 -59.971174 10.061992 4.756537 71.986006 3.340009 50.657984 -121.104668 -125.852738 53.037383 150.243606 31.054859 52.844808 -29.994408 -128.090506 34.318858 27.664359 14.495316 12.086417 -114.405336 -18.414090 38.969448 -125.446610
0.128729 0.980606 -0.041615 73.811141 -12.910850 17.136380 -85.956718 -12.701416 19.154959 96.472740 18.879482 16.248635 -153.211511 8.955668 49.039387 0.000000 0.000000 0.000000 58.440974 18.398885 -50.285740 -165.339392 11.371388 -13.309611 22.943069 -3.530405 8.276811 179.008802 37.737183 -102.318678 -72.822704 9.531183 -68.403020 -38.248917 -14.851272 -28.326056 -23.161780 1.343881 3.137866 41.337799 11.926684 7.186504 32.869023 21.372093 10.005103 -97.058670 -23.500801 -33.423142 18.843293 -1.190632 48.596844 2.259502 42.572189 -111.505715 -117.181841 53.643308 156.923338 22.865496 49.710338 -34.823993 -112.261919 32.846398 30.279590 6.224133 6.932942 -104.655223 -14.472890 32.503552 -124.338692
0.0 0.0 0.0 0.0 0.0 0.0 0.0 0.0 0.0 71.369485 -5.320733 7.403756 -104.958689 16.149951 70.996721 0.000000 0.000000 0.000000 25.279942 0.841231 -74.380922 -159.703275 17.509696 -19.415288 22.977522 -3.285291 7.697224 174.174470 23.405953 -74.051957 11.074499 -1.609750 91.635638 -12.393345 -50.398832 -39.337154 -22.697867 4.925940 11.601374 42.231126 72.792299 20.974671 27.559685 11.477689 0.471069 0.0 0.0 0.0 0.0 0.0 0.0 0.0 0.0 0.0 0.0 0.0 0.0 0.0 0.0 0.0 0.0 0.0 0.0 0.0 0.0 0.0 0.0 0.0 0.0
0.130853 0.977577 -0.045089 70.803053 -12.876982 18.044661 -83.415994 -12.275479 23.616749 90.033086 28.549922 8.182254 -145.955323 15.222911 47.922266 0.000000 0.000000 0.000000 52.478628 14.929286 -46.143523 -172.608435 -0.123328 -1.363847 23.144913 -1.622462 3.789519 -170.455733 12.731952 -65.287931 -42.741595 -4.271034 -40.442717 -40.896788 -23.614533 -23.332736 -23.128422 1.854614 4.333073 45.021852 26.276021 9.023436 25.038674 9.522863 2.207373 -74.264727 -22.046089 -122.293327 10.117915 -0.429827 134.496610 -11.142675 48.805587 -139.426814 -104.805201 60.928371 168.626296 51.322035 53.635156 -17.801385 -145.226740 37.991624 24.578286 16.600737 9.867494 -124.455978 -9.451021 29.786483 -118.325611
0.132612 0.981050 -0.045912 72.241407 -13.405350 18.296550 -84.671735 -13.864931 13.956143 91.461093 18.256875 10.676259 -149.457217 11.156130 43.291836 0.000000 0.000000 0.000000 59.641439 17.587778 -45.667924 -170.858652 -9.887063 7.916725 23.195283 -0.403009 0.940412 173.202484 -13.288050 -100.691497 -32.225499 5.178254 -21.224548 -44.071123 -21.167529 -23.026871 -23.147589 1.581552 3.693784 52.763915 19.860520 10.215487 32.280596 11.472461 4.351180 -75.191750 -19.180804 -109.434426 7.124558 4.067242 122.123668 -8.887636 47.738320 -136.788285 -104.255994 60.205536 168.810440 25.037015 66.217864 -46.072510 -131.483270 52.783269 29.431030 14.788211 10.961287 -115.367566 -13.448989 32.649494 -121.263378
0.133625 0.986408 -0.043103 74.547297 -13.005077 17.035039 -85.085236 -12.595880 21.582865 88.750667 22.982005 11.823415 -150.648431 6.422197 41.776244 0.000000 0.000000 0.000000 63.647025 19.147343 -38.961812 -177.974298 -23.518660 24.976758 23.164042 1.301982 -3.039908 169.985873 -31.541057 -93.333779 -12.556414 -5.507363 -1.358405 -32.752305 -23.695233 -30.940610 -23.107853 2.108418 4.927937 46.474984 19.530465 12.301494 37.707380 9.228631 5.056394 -71.220479 -0.368798 -133.592480 -2.232257 16.351110 146.837313 -10.197993 43.823701 -138.778522 -87.308535 61.162687 -176.423272 -12.745784 68.199832 -84.604577 -110.996610 65.203106 53.425443 13.188464 10.636674 -122.346643 -11.138923 29.833088 -119.264029
0.128784 0.985755 -0.042717 73.991787 -13.339150 17.643926 -86.433665 -12.806087 22.661094 90.617637 24.907020 11.385357 -146.883307 9.031663 45.162552 0.000000 0.000000 0.000000 58.084661 18.221893 -45.063626 -175.537185 -26.147634 26.241147 23.143738 1.640102 -3.830804 169.822499 -32.676708 -96.709444 -10.644855 -1.834823 9.330613 -36.063212 -26.437465 -29.611230 -23.099367 2.204557 5.153452 51.433944 19.367565 14.108633 39.696796 8.932285 5.405494 -71.405073 -6.472229 -121.609946 -0.553762 13.054076 133.435610 -6.854191 41.621909 -136.988902 -78.209452 60.530535 -168.678254 -13.260796 67.643536 -84.837176 -110.834948 64.311887 50.801929 13.894065 9.591513 -119.583480 -10.297050 27.886956 -119.211894
0.121728 0.978596 -0.037735 71.616767 -11.805782 16.311156 -86.666620 -12.427372 11.501167 94.141315 15.203727 9.681253 -145.062368 14.445767 46.191631 0.000000 0.000000 0.000000 57.646401 20.135385 -47.958315 -173.676181 -15.460478 14.948539 23.189366 0.673003 -1.570609 173.460950 -21.374279 -90.934940 -13.464550 0.932990 6.485690 -38.885777 -11.304489 -18.563787 -23.180135 0.951792 2.221609 37.911028 20.809147 3.617937 34.581649 4.452459 -0.058611 -72.163701 -12.362983 -76.037077 -1.358988 6.196045 85.922867 -2.559382 42.354568 -125.114816 -91.381938 59.128127 179.019470 -26.449167 55.000252 -93.514994 -80.533628 57.855763 55.347007 15.939947 14.067598 -97.671381 -23.148462 38.855064 -128.231942
0.133468 0.980548 -0.046048 71.726019 -13.236713 18.237010 -81.323196 -12.611884 25.862240 87.239028 32.250778 6.099105 -145.507758 15.102856 46.619848 0.000000 0.000000 0.000000 51.991671 14.889547 -44.912920 -174.669022 -9.866051 9.677844 23.198463 -0.079249 0.184915 -177.645080 -6.780320 -75.936188 -20.926943 -2.838835 -15.326545 -39.615161 -27.180713 -24.028386 -23.099672 2.201178 5.145523 48.709825 25.107924 12.646776 27.099975 9.743160 3.151534 -68.468357 3.511940 -139.744575 -2.023364 20.479949 155.362377 -18.104175 51.186160 -147.143509 -113.782969 59.890562 161.338712 45.566569 60.695299 -25.388555 -140.863928 45.249268 30.319786 13.158291 13.108035 -128.008218 -12.690311 34.247964 -118.809582
0.134976 0.978063 -0.046298 71.118705 -12.993260 18.102221 -82.544508 -13.227034 15.703252 88.979154 21.088720 8.541943 -145.314041 13.630784 45.863102 0.000000 0.000000 0.000000 52.866797 13.988136 -49.151136 -171.800506 -16.049921 14.896193 23.191269 0.599589 -1.399232 165.364194 -30.090130 -96.230726 -22.778253 -4.186822 -16.281870 -32.500047 -20.480192 -24.572493 -23.128446 1.854298 4.332334 46.052824 29.890898 11.174954 23.908733 5.462729 1.133329 -66.216054 3.287420 -128.368003 -3.640446 22.468841 141.132212 -11.657482 50.830992 -142.359971 -108.936089 60.717294 165.176190 20.936484 64.751504 -49.775488 -134.244706 55.393868 30.714666 18.708550 11.196552 -123.409328 -10.781765 31.723790 -119.015559
0.131671 0.978355 -0.040714 71.997799 -11.886155 16.308472 -85.476493 -13.014561 6.553228 91.128424 9.448215 10.811610 -147.487296 13.048718 45.058996 0.000000 0.000000 0.000000 58.711956 17.183794 -51.687923 -165.718567 -24.088190 19.336573 23.163381 1.314368 -3.068864 152.516861 -41.869475 -99.361160 -15.390071 -7.434173 -6.517998 -41.351302 -13.820857 -20.572330 -23.175694 1.060079 2.474570 51.745550 20.135908 7.201351 36.590282 4.163961 0.196473 -68.515607 -5.946093 -103.500463 -3.498603 12.786998 114.433527 -5.430060 48.114901 -129.661249 -108.456114 58.904574 165.041661 -2.187436 64.046467 -72.630281 -110.803671 59.005663 39.019682 15.399725 13.310488 -107.568911 -18.810137 37.898971 -124.585597
0.114116 0.962188 -0.051625 61.651236 -13.876106 23.051995 -81.126858 -17.772722 -0.218523 91.157320 2.625313 17.308108 -147.156442 3.575520 42.781490 0.000000 0.000000 0.000000 55.871774 9.452284 -49.911382 -155.504408 -8.731059 0.581589 23.150967 -1.528345 3.569292 161.679512 -4.464203 -95.802751 -33.273292 -5.692602 -33.321480 -24.911796 -3.849808 -27.760080 -23.187170 0.748792 1.747551 32.395581 22.989762 2.535115 17.822534 12.387838 2.983929 -96.782964 -31.092564 -31.147359 19.702720 5.271922 51.449546 10.238859 56.329109 -114.624912 -149.698763 38.975817 132.222510 38.361801 44.275370 -22.751984 -132.898395 26.357875 22.322364 23.976008 21.801285 -110.471528 -46.161142 56.910037 -146.540502
0.112813 0.961090 -0.050798 61.357122 -13.676177 22.855077 -81.766008 -18.035823 -1.922417 89.534541 -0.622029 19.500453 -149.600503 1.504772 42.126235 0.000000 0.000000 0.000000 60.033870 9.374171 -49.502410 -155.519460 -4.166623 -4.025712 23.081959 -2.389585 5.587786 158.844978 -3.396779 -97.127287 -35.933264 -7.470973 -33.131136 -27.306372 5.828352 -26.040052 -23.198323 -0.114662 -0.267546 34.278790 23.114816 -0.968321 20.122228 4.416341 0.407768 -90.517367 -29.509123 -36.465101 16.667016 4.334857 51.507451 13.533412 50.212788 -107.246813 -146.429782 40.611828 133.827409 30.376167 41.356654 -26.704469 -120.630481 24.339280 27.508325 19.053276 20.579287 -110.697861 -47.706415 56.984451 -147.969971
0.115929 0.967457 -0.048862 64.760146 -14.006639 21.926978 -83.724528 -16.619311 5.817000 91.440166 7.752945 16.482233 -147.703202 6.597210 46.287126 0.000000 0.000000 0.000000 55.775155 9.886831 -53.538564 -156.732046 -3.118735 -3.814749 23.101734 -2.178179 5.091567 161.355978 -3.854763 -106.453553 -37.105007 -1.832498 -32.838373 -35.384766 4.402643 -23.008356 -23.197093 -0.271149 -0.632699 35.680979 27.010247 -2.748915 29.811789 5.450402 -1.968456 -96.350419 -27.688061 -26.581631 19.016900 3.068635 43.653511 10.050492 52.552504 -108.535611 -147.227986 40.037918 134.065583 24.849137 46.106421 -33.448148 -121.311744 30.513584 24.633802 21.012785 20.491216 -104.447765 -50.865937 57.424890 -150.660091
0.113948 0.964274 -0.060563 60.436478 -16.028083 27.178374 -80.090825 -20.327077 1.501085 90.658021 2.643632 23.295892 -157.874793 -3.798495 43.287592 0.000000 0.000000 0.000000 61.920900 6.584178 -47.770206 -144.614035 11.816201 -21.122730 22.750352 -4.663896 10.973487 -98.872104 -67.498680 82.663660 5.595668 -48.547657 23.254333 -32.567557 -0.014369 -33.613193 -23.197460 0.235599 0.549742 39.117570 19.708207 0.924155 27.287234 18.121111 5.146778 -97.051706 -32.120544 -22.543066 22.311229 3.240505 38.498269 11.430620 59.278320 -105.858355 -156.590705 31.630239 128.640269 37.095137 43.959150 -21.420520 -127.530338 20.170114 23.172818 20.289308 28.638916 -108.748539 -76.941730 62.151449 -172.224287
0.113652 0.968966 -0.056306 63.465581 -16.146472 25.837187 -82.099373 -20.127892 0.715629 95.842459 -1.540048 26.055475 -166.710035 -5.274239 44.418155 0.000000 0.000000 0.000000 67.761782 11.682410 -36.029134 -151.958906 12.336690 -19.657916 22.706144 -4.885598 11.504590 -25.216903 -41.145553 17.903134 -13.775886 -69.994308 23.300892 -41.229997 -1.307858 -34.921570 -23.198410 0.094071 0.219499 50.736568 11.406577 1.451008 39.234572 31.072821 17.596553 -87.151851 -30.444218 -39.899082 12.720737 3.002446 42.437772 21.741108 47.409071 -91.275814 -146.948279 37.665407 133.623288 -16.002048 47.705427 -76.842506 -91.315462 44.133727 38.676077 21.488588 19.195562 -96.648827 -51.217934 56.614706 -151.527221
0.110291 0.963208 -0.049409 62.223518 -13.855751 22.766479 -83.075060 -15.552911 13.252697 96.136706 10.255927 23.369950 -162.686852 -0.037061 46.284956 0.000000 0.000000 0.000000 69.660974 15.591856 -37.763426 -148.723003 12.595309 -20.039274 22.752095 -4.654931 10.952039 -46.881016 -41.097408 32.067618 -6.989198 -63.078112 26.911398 -37.578271 -5.330725 -34.193183 -23.193867 0.481607 1.123849 49.217747 11.808333 3.501118 39.622984 19.585459 9.895834 -87.216183 -25.192512 -27.847660 10.426017 4.148130 36.236162 19.718328 45.503939 -96.256605 -143.643175 38.944767 135.217629 1.494739 34.114199 -44.438496 -93.994476 25.168172 30.186270 18.722178 15.675983 -105.550326 -34.211200 49.485161 -138.338543
0.109996 0.957613 -0.036986 62.706397 -10.271689 16.782940 -86.158969 -11.970568 8.456629 95.924318 3.536595 20.506490 -156.676732 3.255629 44.246843 0.000000 0.000000 0.000000 64.330820 11.008914 -48.887471 -154.507812 0.622951 -8.606719 23.014442 -2.999907 7.023764 -16.694235 -44.382471 11.610798 0.639146 -45.667047 12.800300 -36.692240 1.359074 -27.520557 -23.198520 -0.058676 -0.136910 24.707843 6.718004 -1.329743 44.516629 26.435492 8.438221 -105.274732 -22.025404 -13.823522 25.944225 2.760738 31.517970 23.490704 43.208256 -86.891040 -156.413063 26.513629 128.741159 -3.230682 48.703843 -67.978095 -92.324264 49.635314 46.252989 21.222039 21.492182 -93.974573 -84.371447 61.336651 -179.819681
0.101528 0.952325 -0.013393 63.140519 -3.809229 6.195262 -90.638447 -2.529712 11.428883 96.753196 1.717857 18.035822 -147.533185 9.308747 47.429199 0.000000 0.000000 0.000000 57.694328 8.275740 -57.567686 -154.013380 -2.653549 -4.964520 23.092577 -2.278540 5.327068 -22.101534 -39.494517 13.713185 -0.087632 -40.832997 16.223646 -32.077216 7.303645 -22.185583 -23.194490 -0.448747 -1.047155 23.183900 9.357621 -3.139073 39.398453 34.964675 9.634752 -103.774376 -6.949410 -2.306866 18.252161 2.995114 15.169244 30.289445 19.952125 -62.078092 179.041398 -9.712084 129.880016 -48.271925 5.543850 -57.806638 -28.204384 20.441928 43.070018 21.866198 6.575907 -69.959408 -72.936317 58.156338 -172.987522
0.104850 0.952845 -0.045263 57.025450 -11.549983 21.091988 -82.633156 -16.293369 -0.158125 93.397253 0.212866 18.266729 -150.292293 5.358615 42.236988 0.000000 0.000000 0.000000 60.260905 9.493587 -46.854621 -160.291150 -18.265383 11.757008 23.196793 -0.297111 0.693282 176.397836 -5.722101 -85.681150 -17.571717 -4.027045 -13.192223 -23.072710 0.529819 -26.143027 -23.195391 0.396405 0.924999 24.881296 11.382516 0.344276 32.384069 8.593924 1.802024 -93.511580 -26.658947 -24.677444 19.202506 5.175515 43.478139 19.737343 56.960102 -99.049937 -160.236139 25.382789 126.362812 29.315685 40.586751 -30.552100 -120.924236 28.285781 22.995025 27.092476 26.876742 -102.029226 -83.365139 61.958070 -178.543174
0.126076 0.969755 -0.043244 68.552999 -12.239277 17.879997 -85.080348 -13.969351 5.695996 90.578102 8.514396 11.828790 -144.350448 11.074607 44.770832 0.000000 0.000000 0.000000 48.757668 4.244656 -57.041946 -162.526550 -5.626140 1.523736 23.169970 -1.185119 2.766747 171.166638 -5.318557 -101.160888 -38.017131 -0.646708 -36.707574 -31.738964 -3.697769 -20.085195 -23.194228 0.462844 1.080057 33.528433 26.986317 0.499282 26.416839 10.106281 1.069280 -88.493022 -29.090440 -65.512533 17.349373 0.286298 79.022153 4.875048 50.785184 -117.469663 -127.943124 53.015035 148.677761 19.713742 55.461953 -45.514978 -120.901110 45.449830 31.283343 17.258245 11.524803 -110.730177 -19.419090 41.556387 -126.384383
0.121945 0.976120 -0.044360 69.670135 -13.502728 19.308011 -86.163386 -15.238992 6.989421 90.825266 10.855993 11.549759 -146.560716 10.441743 42.918780 0.000000 0.000000 0.000000 54.378743 10.260708 -51.610850 -162.180329 -28.586509 22.049974 23.145169 1.618591 -3.780459 158.968844 -36.375381 -100.673461 -19.406006 -4.989523 -14.101856 -39.726230 -4.177975 -19.059624 -23.196934 0.285210 0.665510 31.944208 20.096087 -1.490333 37.505070 6.744368 -1.090290 -75.204956 -18.488700 -66.911087 1.349762 6.744145 74.132311 3.154314 48.771639 -119.248898 -118.075568 55.637329 156.383865 -7.198346 56.790112 -71.893717 -102.846759 51.779473 38.836331 17.158552 13.599642 -103.538975 -23.439782 41.924186 -128.889245
0.125411 0.975266 -0.046497 69.106148 -13.482375 19.479129 -83.941837 -14.585800 10.760146 90.132961 16.175624 9.655893 -145.347736 9.666287 40.461200 0.000000 0.000000 0.000000 52.170177 10.163021 -46.248638 -167.696755 -8.251778 5.817951 23.191264 -0.599777 1.399671 -176.083886 2.203262 -75.762216 -22.445349 -4.395575 -25.538736 -38.005721 -16.343216 -21.802287 -23.163255 1.316710 3.074339 45.378519 24.408277 6.811005 28.577783 8.181592 1.688361 -71.561721 -18.583891 -110.847475 7.055817 6.769920 120.590068 -5.687220 51.612669 -133.386272 -115.291141 58.297679 159.477523 33.695661 58.884889 -34.641379 -133.674214 44.448661 28.971212 16.560777 13.367774 -121.150284 -15.394435 37.027831 -121.911299
0.125449 0.973617 -0.045507 68.124586 -12.879374 18.955562 -84.213384 -13.615380 13.609444 88.509618 18.156625 9.002334 -144.133591 12.033538 43.463995 0.000000 0.000000 0.000000 52.544439 10.237166 -49.104110 -163.855168 -6.044291 2.640676 23.178072 -1.003565 2.342544 -176.520957 6.653209 -65.329453 -26.068517 -0.277493 -16.635595 -37.935445 -20.879220 -23.217493 -23.144672 1.626095 3.798023 44.200861 24.629788 7.333248 33.554090 1.530450 -0.530036 -66.815490 -7.706258 -133.071124 3.136818 11.726109 145.375626 -11.270723 50.487955 -139.413190 -113.230342 59.609336 161.165704 33.546622 65.659605 -40.890653 -137.642597 52.683766 27.070957 17.324797 14.743885 -120.499809 -16.299651 37.848881 -121.619925
0.120848 0.977553 -0.044463 69.423110 -13.487435 19.373623 -86.894097 -15.187883 7.989248 92.198768 10.699776 12.972457 -146.364575 7.665107 42.091831 0.000000 0.000000 0.000000 57.339361 13.498731 -49.412587 -165.287682 -21.821720 17.194250 23.187049 0.752753 -1.756801 167.177942 -22.630713 -91.218510 -14.461332 1.119125 4.665602 -38.791998 -14.886208 -24.147493 -23.171662 1.149579 2.683691 35.497382 20.094726 3.102841 39.662485 10.103532 2.192029 -68.407474 -11.735430 -101.628306 -0.550956 9.604522 111.267940 -6.059524 45.803656 -131.712496 -102.019603 59.727854 170.216653 -16.940587 64.067671 -89.750800 -102.818325 61.967701 47.188174 16.523426 16.972149 -108.613966 -24.110280 42.578907 -127.420977
0.129519 0.974800 -0.047827 68.776456 -13.326532 19.373043 -84.070294 -14.960878 6.869975 90.643246 12.206418 10.126329 -144.650553 9.591773 40.431236 0.000000 0.000000 0.000000 52.209048 9.602639 -49.961860 -165.458704 -12.900642 9.581107 23.198588 -0.011995 0.027987 169.622427 -15.578391 -90.856802 -30.505107 1.038814 -21.678631 -36.928397 -17.237608 -22.213021 -23.157542 1.419061 3.313667 47.519827 22.167671 8.275310 30.447304 8.139404 2.268109 -66.852419 -7.655298 -123.713181 1.534965 13.563974 136.678220 -12.589294 52.546681 -140.460234 -120.878675 57.693063 155.009146 29.764820 65.546913 -43.318699 -136.872552 52.264759 24.771695 18.397351 17.941184 -116.809530 -22.301856 43.240901 -125.604601
0.124064 0.975035 -0.045577 68.447898 -13.145298 19.228041 -85.023707 -14.732965 8.034280 90.583391 12.357502 10.768224 -144.903269 9.031584 40.611899 0.000000 0.000000 0.000000 52.705122 9.811119 -47.570288 -166.375566 -20.120372 16.958115 23.184352 0.836059 -1.951320 169.750011 -21.790036 -86.000390 -18.130345 -1.290756 -6.397394 -38.926738 -16.696293 -22.338738 -23.164649 1.290503 3.013073 40.129718 20.777920 4.884273 33.800347 6.856511 1.297635 -64.942619 -3.974278 -119.310969 -2.804862 15.244882 129.269527 -9.550873 49.830040 -136.002359 -111.562890 59.425795 162.394968 21.925747 65.946246 -51.232015 -130.713194 54.248555 28.959052 17.352325 15.906724 -116.665203 -19.212430 39.842384 -123.719484
0.135262 0.978712 -0.041987 72.068807 -11.929158 16.346077 -84.954548 -12.809841 8.374916 88.584844 12.175204 9.164601 -140.912394 8.961386 40.237477 0.000000 0.000000 0.000000 43.304280 3.298040 -50.639240 -165.968853 -29.480234 25.372668 23.106632 2.122527 -4.961027 150.392184 -46.321170 -92.979069 -22.731566 -8.013762 -20.475751 -36.393418 -5.922342 -17.595423 -23.192882 0.529435 1.235478 33.440397 25.363932 0.126884 38.302961 3.875217 -2.585772 -63.511772 8.669264 -118.257119 -12.498168 21.603298 126.302516 -9.131730 47.605870 -132.164621 -102.624364 60.794925 170.188697 -7.101631 62.807825 -76.756009 -106.838882 60.093682 44.781513 15.092836 12.614630 -113.319580 -15.628113 36.149770 -121.878610
0.131908 0.976532 -0.043292 70.871161 -12.325974 17.257003 -84.460354 -13.919007 3.593765 87.625158 4.531669 14.230015 -147.715038 4.586553 39.974587 0.000000 0.000000 0.000000 54.586247 7.967003 -50.654573 -161.123388 -28.340555 20.319908 23.168968 1.205659 -2.814752 148.085532 -41.599294 -96.285194 -18.973284 -8.299016 -13.357337 -36.080757 -6.026990 -23.508108 -23.192863 0.530334 1.237579 35.980487 19.796752 1.010203 37.952182 -0.741710 -3.175618 -68.093372 -4.788719 -122.661813 -1.998843 11.950861 129.588482 -4.126845 48.933764 -125.332931 -111.447120 58.958442 162.420394 -10.918833 65.481088 -83.943935 -106.905502 62.943093 46.400449 15.463015 14.433286 -110.785739 -20.203848 41.285642 -125.088369
0.128996 0.975380 -0.050496 68.801028 -14.247376 20.687532 -84.144921 -15.997488 7.291357 92.334838 9.699949 15.290962 -147.900323 3.998267 42.290016 0.000000 0.000000 0.000000 51.281553 7.064274 -52.351846 -163.345881 -11.138771 5.553499 23.181448 -0.917344 2.141151 166.200422 -10.256085 -103.205807 -45.508516 5.930978 -36.336597 -38.743457 -10.634552 -25.933236 -23.183750 0.853534 1.992128 36.268194 20.097992 2.442445 31.057579 8.182487 1.203610 -66.968961 -10.636420 -106.589000 -1.691023 9.197715 116.694838 -12.570967 50.000297 -136.128133 -117.005733 58.032728 158.273536 22.638454 61.251075 -45.442302 -123.802526 46.280706 34.500175 13.504680 15.936619 -118.539206 -20.965475 41.545156 -125.468435
0.120088 0.975612 -0.043143 69.283399 -13.148867 18.940302 -86.151247 -14.974177 6.301526 92.496745 11.125453 10.275204 -144.093901 12.444871 43.967031 0.000000 0.000000 0.000000 49.151335 7.843882 -52.392006 -163.630563 -15.235510 11.088018 23.196888 0.289170 -0.674752 170.658850 -16.193750 -97.336855 -31.864224 1.060316 -27.555933 -36.157591 -12.830339 -20.438762 -23.174214 1.093785 2.553321 36.170779 23.851946 3.368712 30.640018 8.754140 1.264324 -73.732504 -17.432045 -70.904830 0.623838 8.584419 80.873482 -0.327694 46.261372 -128.658973 -103.470731 59.477972 168.636663 18.761458 54.306533 -44.133242 -120.513560 42.851331 31.355958 16.756559 11.540727 -114.443613 -15.604282 35.215466 -123.453330
